[
{"business": "Intermarche Super", "opening_hours": "07:00-21:00", "address": "al. Rzeczypospolitej 33", "city": "Gdańsk", "url": "https://intermarche-super.okazjum.pl/sklepy/gdansk/"},
{"business": "Intermarche Super", "opening_hours": "07:00-21:00", "address": "al. Grunwaldzka 615", "city": "Gdańsk", "url": "https://intermarche-super.okazjum.pl/sklepy/gdansk/"},
{"business": "Lidl", "opening_hours": "06:00-22:00", "address": "ul. Zawodników 4", "city": "Gdańsk", "url": "https://lidl.okazjum.pl/sklepy/gdansk/"},
{"business": "Lidl", "opening_hours": "06:00-22:00", "address": "ul. Sandomierska 11", "city": "Gdańsk", "url": "https://lidl.okazjum.pl/sklepy/gdansk/"},
{"business": "Lidl", "opening_hours": "06:00-23:00", "address": "ul. Kartuska 455", "city": "Gdańsk", "url": "https://lidl.okazjum.pl/sklepy/gdansk/"},
{"business": "Lidl", "opening_hours": "06:00-22:00", "address": "ul. Marcina Dragana 27", "city": "Gdańsk", "url": "https://lidl.okazjum.pl/sklepy/gdansk/"},
{"business": "Lidl", "opening_hours": "06:00-22:00", "address": "ul. Marynarki Polskiej 97", "city": "Gdańsk", "url": "https://lidl.okazjum.pl/sklepy/gdansk/"},
{"business": "Lidl", "opening_hours": "06:00-23:00", "address": "ul. Kartuska 224", "city": "Gdańsk", "url": "https://lidl.okazjum.pl/sklepy/gdansk/"},
{"business": "Lidl", "opening_hours": "06:00-22:00", "address": "ul. Platynowa 3", "city": "Gdańsk", "url": "https://lidl.okazjum.pl/sklepy/gdansk/"},
{"business": "Lidl", "opening_hours": "06:00-22:00", "address": "ul. Jana Uphagena 32", "city": "Gdańsk", "url": "https://lidl.okazjum.pl/sklepy/gdansk/"},
{"business": "Lidl", "opening_hours": "06:00-22:00", "address": "ul. Warszawska 21", "city": "Gdańsk", "url": "https://lidl.okazjum.pl/sklepy/gdansk/"},
{"business": "Lidl", "opening_hours": "06:00-22:00", "address": "ul. Nowotna 20", "city": "Gdańsk", "url": "https://lidl.okazjum.pl/sklepy/gdansk/"},
{"business": "Lidl", "opening_hours": "06:00-22:00", "address": "ul. Franciszka Rakoczego 21", "city": "Gdańsk", "url": "https://lidl.okazjum.pl/sklepy/gdansk/"},
{"business": "Lidl", "opening_hours": "06:00-22:00", "address": "ul. Bolesława Chrobrego 75", "city": "Gdańsk", "url": "https://lidl.okazjum.pl/sklepy/gdansk/"},
{"business": "Lidl", "opening_hours": "06:00-22:00", "address": "al. Grunwaldzka 161", "city": "Gdańsk", "url": "https://lidl.okazjum.pl/sklepy/gdansk/"},
{"business": "Lidl", "opening_hours": "06:00-22:00", "address": "ul. Gdańska 21 C", "city": "Gdańsk", "url": "https://lidl.okazjum.pl/sklepy/gdansk/"},
{"business": "Lidl", "opening_hours": "06:00-23:00", "address": "ul. Franciszka Hynka 69", "city": "Gdańsk", "url": "https://lidl.okazjum.pl/sklepy/gdansk/"},
{"business": "Lidl", "opening_hours": "06:00-22:00", "address": "ul. Czerska 71", "city": "Gdańsk", "url": "https://lidl.okazjum.pl/sklepy/gdansk/"},
{"business": "Lidl", "opening_hours": "06:00-22:00", "address": "ul. Staropolska 36", "city": "Kowale", "url": "https://lidl.okazjum.pl/sklepy/gdansk/"},
{"business": "Lidl", "opening_hours": "06:00-22:00", "address": "ul. Przywidzka 9", "city": "Gdańsk", "url": "https://lidl.okazjum.pl/sklepy/gdansk/"},
{"business": "Lidl", "opening_hours": "06:00-23:00", "address": "ul. Kołobrzeska 28C", "city": "Gdańsk", "url": "https://lidl.okazjum.pl/sklepy/gdansk/"},
{"business": "Lidl", "opening_hours": "06:00-22:00", "address": "al. Grunwaldzka 507 /  9", "city": "Gdańsk", "url": "https://lidl.okazjum.pl/sklepy/gdansk/"},
{"business": "Lidl", "opening_hours": "06:00-22:00", "address": "ul. Bajki 1/3", "city": "Rotmanka", "url": "https://lidl.okazjum.pl/sklepy/gdansk/"},
{"business": "Lidl", "opening_hours": "06:00-22:00", "address": "ul. Złota Karczma 21", "city": "Gdańsk", "url": "https://lidl.okazjum.pl/sklepy/gdansk/"},
{"business": "Lidl", "opening_hours": "06:00-22:00", "address": "ul. Azaliowa 2", "city": "Pruszcz Gdański", "url": "https://lidl.okazjum.pl/sklepy/gdansk/"},
{"business": "Lidl", "opening_hours": "06:00-22:00", "address": "ul. Starogardzka 31", "city": "Straszyn", "url": "https://lidl.okazjum.pl/sklepy/gdansk/"},
{"business": "Lidl", "opening_hours": "06:00-22:00", "address": "al. Niepodległości 697", "city": "Sopot", "url": "https://lidl.okazjum.pl/sklepy/gdansk/"},
{"business": "Lidl", "opening_hours": "06:00-22:00", "address": "al. Niepodległości 938", "city": "Sopot", "url": "https://lidl.okazjum.pl/sklepy/gdansk/"},
{"business": "Lidl", "opening_hours": "06:00-22:00", "address": "ul. Wodnika 38", "city": "Gdańsk", "url": "https://lidl.okazjum.pl/sklepy/gdansk/"},
{"business": "Lidl", "opening_hours": "06:00-22:00", "address": "ul. Lotnicza 44", "city": "Banino", "url": "https://lidl.okazjum.pl/sklepy/gdansk/"},
{"business": "Lidl", "opening_hours": "06:00-22:00", "address": "ul. Gryfa Pomorskiego 3", "city": "Gdynia", "url": "https://lidl.okazjum.pl/sklepy/gdansk/"},
{"business": "Lidl", "opening_hours": "06:00-22:00", "address": "ul. Małokacka 31", "city": "Gdynia", "url": "https://lidl.okazjum.pl/sklepy/gdansk/"},
{"business": "Lidl", "opening_hours": "06:00-22:00", "address": "ul. Oliwska 122", "city": "Chwaszczyno", "url": "https://lidl.okazjum.pl/sklepy/gdansk/"},
{"business": "Lidl", "opening_hours": "06:00-22:00", "address": "ul. Gdańska 59B", "city": "Żukowo", "url": "https://lidl.okazjum.pl/sklepy/gdansk/"},
{"business": "Lidl", "opening_hours": "06:00-22:00", "address": "ul. Świętojańska 45/1", "city": "Gdynia", "url": "https://lidl.okazjum.pl/sklepy/gdansk/"},
{"business": "Pepco", "opening_hours": "09:00-21:00", "address": "ul. Rajska 10", "city": "Gdańsk", "url": "https://pepco.okazjum.pl/sklepy/gdansk/"},
{"business": "Pepco", "opening_hours": "08:30-20:00", "address": "ul. Władysława Cieszyńskiego 1A", "city": "Gdańsk", "url": "https://pepco.okazjum.pl/sklepy/gdansk/"},
{"business": "Pepco", "opening_hours": "09:00-20:30", "address": "ul. Krzemowa 1", "city": "Gdańsk", "url": "https://pepco.okazjum.pl/sklepy/gdansk/"},
{"business": "Pepco", "opening_hours": "09:00-19:30", "address": "ul. Nieborowska 8", "city": "Gdańsk", "url": "https://pepco.okazjum.pl/sklepy/gdansk/"},
{"business": "Pepco", "opening_hours": "09:00-21:00", "address": "ul. Franciszka Schuberta 102 A", "city": "Gdańsk", "url": "https://pepco.okazjum.pl/sklepy/gdansk/"},
{"business": "Pepco", "opening_hours": "09:00-21:00", "address": "al. Grunwaldzka 82", "city": "Gdańsk", "url": "https://pepco.okazjum.pl/sklepy/gdansk/"},
{"business": "Pepco", "opening_hours": "10:00-21:00", "address": "ul. Jana Kilińskiego 4", "city": "Gdańsk", "url": "https://pepco.okazjum.pl/sklepy/gdansk/"},
{"business": "Pepco", "opening_hours": "09:00-20:30", "address": "ul. Warszawska 59 B", "city": "Gdańsk", "url": "https://pepco.okazjum.pl/sklepy/gdansk/"},
{"business": "Pepco", "opening_hours": "08:30-20:00", "address": "ul. Józefa Żylewicza 2", "city": "Gdańsk", "url": "https://pepco.okazjum.pl/sklepy/gdansk/"},
{"business": "Pepco", "opening_hours": "09:00-21:00", "address": "al. Rzeczypospolitej 33", "city": "Gdańsk", "url": "https://pepco.okazjum.pl/sklepy/gdansk/"},
{"business": "Pepco", "opening_hours": "09:00-19:30", "address": "ul. Przywidzka 7-9", "city": "Gdańsk", "url": "https://pepco.okazjum.pl/sklepy/gdansk/"},
{"business": "Pepco", "opening_hours": "09:00-21:00", "address": "ul. Obrońców Wybrzeża 1", "city": "Gdańsk", "url": "https://pepco.okazjum.pl/sklepy/gdansk/"},
{"business": "Pepco", "opening_hours": "09:00-21:00", "address": "ul. Szczęśliwa 3", "city": "Gdańsk", "url": "https://pepco.okazjum.pl/sklepy/gdansk/"},
{"business": "Pepco", "opening_hours": "10:00-21:00", "address": "ul. Złota Karczma 26", "city": "Gdańsk", "url": "https://pepco.okazjum.pl/sklepy/gdansk/"},
{"business": "Pepco", "opening_hours": "09:00-20:30", "address": "ul. Ignacego Domeyki 3", "city": "Pruszcz Gdański", "url": "https://pepco.okazjum.pl/sklepy/gdansk/"},
{"business": "Pepco", "opening_hours": "08:30-20:00", "address": "ul. Jana Kasprowicza 52", "city": "Pruszcz Gdański", "url": "https://pepco.okazjum.pl/sklepy/gdansk/"},
{"business": "Pepco", "opening_hours": "08:30-20:00", "address": "ul. Komandora Kazimierza Kraszewskiego 1", "city": "Straszyn", "url": "https://pepco.okazjum.pl/sklepy/gdansk/"},
{"business": "Pepco", "opening_hours": "09:00-21:00", "address": "ul. Tadeusza Kościuszki 14", "city": "Sopot", "url": "https://pepco.okazjum.pl/sklepy/gdansk/"},
{"business": "Pepco", "opening_hours": "09:30-20:00", "address": "ul. Gen. Władysława Sikorskiego 8-10", "city": "Sopot", "url": "https://pepco.okazjum.pl/sklepy/gdansk/"},
{"business": "Pepco", "opening_hours": "09:30-21:00", "address": "ul. Spacerowa 48", "city": "Gdańsk", "url": "https://pepco.okazjum.pl/sklepy/gdansk/"},
{"business": "Pepco", "opening_hours": "09:00-19:30", "address": "ul. Wolarza 10", "city": "Gdańsk", "url": "https://pepco.okazjum.pl/sklepy/gdansk/"},
{"business": "Pepco", "opening_hours": "08:30-19:00", "address": "ul. Leśna 2", "city": "Kolbudy", "url": "https://pepco.okazjum.pl/sklepy/gdansk/"},
{"business": "Pepco", "opening_hours": "08:30-20:00", "address": "ul. Borowiecka 2", "city": "Banino", "url": "https://pepco.okazjum.pl/sklepy/gdansk/"},
{"business": "Pepco", "opening_hours": "08:00-19:00", "address": "ul. Sojowa 18C", "city": "Gdynia", "url": "https://pepco.okazjum.pl/sklepy/gdansk/"},
{"business": "Pepco", "opening_hours": "08:00-19:30", "address": "ul. Oliwska 145", "city": "Chwaszczyno", "url": "https://pepco.okazjum.pl/sklepy/gdansk/"},
{"business": "Pepco", "opening_hours": "09:00-20:30", "address": "ul. Wielkokacka 2", "city": "Gdynia", "url": "https://pepco.okazjum.pl/sklepy/gdansk/"},
{"business": "Pepco", "opening_hours": "10:00-21:00", "address": "ul. Kazimierza Górskiego 2", "city": "Gdynia", "url": "https://pepco.okazjum.pl/sklepy/gdansk/"},
{"business": "Pepco", "opening_hours": "08:30-20:00", "address": "ul. Gdańska 59", "city": "Żukowo", "url": "https://pepco.okazjum.pl/sklepy/gdansk/"},
{"business": "polomarket", "opening_hours": "06:30-21:00", "address": "ul. Spacerowa 65", "city": "Gdańsk", "url": "https://polomarket.okazjum.pl/sklepy/gdansk/"},
{"business": "polomarket", "opening_hours": "06:30-21:30", "address": "ul. Wita Stwosza 10A", "city": "Pruszcz Gdański", "url": "https://polomarket.okazjum.pl/sklepy/gdansk/"},
{"business": "polomarket", "opening_hours": "06:30-21:30", "address": "ul. Junony 98", "city": "Gdańsk", "url": "https://polomarket.okazjum.pl/sklepy/gdansk/"},
{"business": "Castorama", "opening_hours": "06:30-21:00", "address": "al. Grunwaldzka 262", "city": "Gdańsk", "url": "https://castorama.okazjum.pl/sklepy/gdansk/"},
{"business": "Castorama", "opening_hours": "06:30-21:00", "address": "ul. Odyseusza 2", "city": "Gdańsk", "url": "https://castorama.okazjum.pl/sklepy/gdansk/"},
{"business": "Carrefour", "opening_hours": "06:00-23:00", "address": "ul. Franciszka Schuberta 102 A", "city": "Gdańsk", "url": "https://carrefour.okazjum.pl/sklepy/gdansk/"},
{"business": "Carrefour", "opening_hours": "08:00-21:30", "address": "al. Grunwaldzka 141", "city": "Gdańsk", "url": "https://carrefour.okazjum.pl/sklepy/gdansk/"},
{"business": "Carrefour", "opening_hours": "06:00-22:00", "address": "ul. Przywidzka 6", "city": "Gdańsk", "url": "https://carrefour.okazjum.pl/sklepy/gdansk/"},
{"business": "Dino", "opening_hours": "06:00-22:30", "address": "ul. Słoneczna 2", "city": "Borkowo", "url": "https://dino.okazjum.pl/sklepy/gdansk/"},
{"business": "Dino", "opening_hours": "06:00-22:30", "address": "ul. Do Raduni 1", "city": "Żukowo", "url": "https://dino.okazjum.pl/sklepy/gdansk/"},
{"business": "Biedronka", "opening_hours": "06:00-22:00", "address": "ul. Tandeta 1/78", "city": "Gdańsk", "url": "https://biedronka.okazjum.pl/sklepy/gdansk/"},
{"business": "Biedronka", "opening_hours": "06:00-23:00", "address": "ul. Długie Ogrody 14", "city": "Gdańsk", "url": "https://biedronka.okazjum.pl/sklepy/gdansk/"},
{"business": "Biedronka", "opening_hours": "07:00-21:00", "address": "ul. Karmelicka 1", "city": "Gdańsk", "url": "https://biedronka.okazjum.pl/sklepy/gdansk/"},
{"business": "Biedronka", "opening_hours": "06:00-22:00", "address": "ul. Rajska 6", "city": "Gdańsk", "url": "https://biedronka.okazjum.pl/sklepy/gdansk/"},
{"business": "Biedronka", "opening_hours": "06:00-22:00", "address": "ul. Łąkowa 35/38", "city": "Gdańsk", "url": "https://biedronka.okazjum.pl/sklepy/gdansk/"},
{"business": "Biedronka", "opening_hours": "06:00-22:00", "address": "ul. Kartuska 26", "city": "Gdańsk", "url": "https://biedronka.okazjum.pl/sklepy/gdansk/"},
{"business": "Biedronka", "opening_hours": "06:00-22:00", "address": "ul. Stanisława Worcella 44", "city": "Gdańsk", "url": "https://biedronka.okazjum.pl/sklepy/gdansk/"},
{"business": "Biedronka", "opening_hours": "06:00-22:00", "address": "ul. Tytusa Chałubińskiego 27", "city": "Gdańsk", "url": "https://biedronka.okazjum.pl/sklepy/gdansk/"},
{"business": "Biedronka", "opening_hours": "06:00-22:00", "address": "ul. Ludwika Beethovena 11A", "city": "Gdańsk", "url": "https://biedronka.okazjum.pl/sklepy/gdansk/"},
{"business": "Biedronka", "opening_hours": "06:00-23:00", "address": "ul. Władysława Cieszyńskiego 1a", "city": "Gdańsk", "url": "https://biedronka.okazjum.pl/sklepy/gdansk/"},
{"business": "Biedronka", "opening_hours": "06:00-22:00", "address": "ul. Ignacego Paderewskiego 9", "city": "Gdańsk", "url": "https://biedronka.okazjum.pl/sklepy/gdansk/"},
{"business": "Biedronka", "opening_hours": "06:00-22:00", "address": "ul. Trakt Św. Wojciecha 149", "city": "Gdańsk", "url": "https://biedronka.okazjum.pl/sklepy/gdansk/"},
{"business": "Biedronka", "opening_hours": "07:00-21:00", "address": "ul. Gen. Augusta Emila Fieldorfa 2", "city": "Gdańsk", "url": "https://biedronka.okazjum.pl/sklepy/gdansk/"},
{"business": "Biedronka", "opening_hours": "06:00-22:00", "address": "ul. Krzemowa 1", "city": "Gdańsk", "url": "https://biedronka.okazjum.pl/sklepy/gdansk/"},
{"business": "Biedronka", "opening_hours": "06:00-22:00", "address": "ul. Wawelska 2A", "city": "Gdańsk", "url": "https://biedronka.okazjum.pl/sklepy/gdansk/"},
{"business": "Biedronka", "opening_hours": "06:00-22:00", "address": "ul. Wrzosy 1", "city": "Gdańsk", "url": "https://biedronka.okazjum.pl/sklepy/gdansk/"},
{"business": "Biedronka", "opening_hours": "06:00-22:00", "address": "ul. Kłosowa 6", "city": "Gdańsk", "url": "https://biedronka.okazjum.pl/sklepy/gdansk/"},
{"business": "Biedronka", "opening_hours": "06:00-22:00", "address": "ul. Zofii Nałkowskiej 1A", "city": "Gdańsk", "url": "https://biedronka.okazjum.pl/sklepy/gdansk/"},
{"business": "Biedronka", "opening_hours": "06:00-22:00", "address": "ul. Piekarnicza 24", "city": "Gdańsk", "url": "https://biedronka.okazjum.pl/sklepy/gdansk/"},
{"business": "Biedronka", "opening_hours": "06:00-23:00", "address": "al. Grunwaldzka 100", "city": "Gdańsk", "url": "https://biedronka.okazjum.pl/sklepy/gdansk/"},
{"business": "Biedronka", "opening_hours": "09:00-19:00", "address": "ul. Franciszka Rakoczego 17", "city": "Gdańsk", "url": "https://biedronka.okazjum.pl/sklepy/gdansk/"},
{"business": "Biedronka", "opening_hours": "06:00-23:00", "address": "ul. Wajdeloty 12", "city": "Gdańsk", "url": "https://biedronka.okazjum.pl/sklepy/gdansk/"},
{"business": "Biedronka", "opening_hours": "06:00-22:00", "address": "ul. Piecewska 26", "city": "Gdańsk", "url": "https://biedronka.okazjum.pl/sklepy/gdansk/"},
{"business": "Biedronka", "opening_hours": "06:00-23:00", "address": "al. Gen. Józefa Hallera 167", "city": "Gdańsk", "url": "https://biedronka.okazjum.pl/sklepy/gdansk/"},
{"business": "Biedronka", "opening_hours": "06:00-22:00", "address": "ul. Sucha 31", "city": "Gdańsk", "url": "https://biedronka.okazjum.pl/sklepy/gdansk/"},
{"business": "Biedronka", "opening_hours": "06:00-23:00", "address": "ul. Warszawska 59", "city": "Gdańsk", "url": "https://biedronka.okazjum.pl/sklepy/gdansk/"},
{"business": "Biedronka", "opening_hours": "06:00-23:00", "address": "al. Rzeczypospolitej 33", "city": "Gdańsk", "url": "https://biedronka.okazjum.pl/sklepy/gdansk/"},
{"business": "Biedronka", "opening_hours": "06:00-22:00", "address": "ul. Bolesława Chrobrego 79E", "city": "Gdańsk", "url": "https://biedronka.okazjum.pl/sklepy/gdansk/"},
{"business": "Biedronka", "opening_hours": "06:00-23:00", "address": "ul. Cypriana Kamila Norwida 15", "city": "Gdańsk", "url": "https://biedronka.okazjum.pl/sklepy/gdansk/"},
{"business": "Biedronka", "opening_hours": "06:00-22:00", "address": "ul. Wolności 8", "city": "Gdańsk", "url": "https://biedronka.okazjum.pl/sklepy/gdansk/"},
{"business": "Biedronka", "opening_hours": "06:00-22:00", "address": "ul. Kartuska 406", "city": "Gdańsk", "url": "https://biedronka.okazjum.pl/sklepy/gdansk/"},
{"business": "Biedronka", "opening_hours": "06:00-22:00", "address": "ul. Kartuska 257", "city": "Gdańsk", "url": "https://biedronka.okazjum.pl/sklepy/gdansk/"},
{"business": "Biedronka", "opening_hours": "06:00-23:00", "address": "ul. Kartuska 332", "city": "Gdańsk", "url": "https://biedronka.okazjum.pl/sklepy/gdansk/"},
{"business": "Biedronka", "opening_hours": "06:00-22:00", "address": "ul. Wyzwolenia 26", "city": "Gdańsk", "url": "https://biedronka.okazjum.pl/sklepy/gdansk/"},
{"business": "Biedronka", "opening_hours": "06:00-23:00", "address": "ul. Kazimierza Porębskiego 8", "city": "Gdańsk", "url": "https://biedronka.okazjum.pl/sklepy/gdansk/"},
{"business": "Biedronka", "opening_hours": "07:00-21:00", "address": "al. Grunwaldzka 211", "city": "Gdańsk", "url": "https://biedronka.okazjum.pl/sklepy/gdansk/"},
{"business": "Biedronka", "opening_hours": "06:00-23:00", "address": "ul. Gdańska 21L", "city": "Gdańsk", "url": "https://biedronka.okazjum.pl/sklepy/gdansk/"},
{"business": "Biedronka", "opening_hours": "06:00-23:00", "address": "ul. Wielkopolska 62", "city": "Gdańsk", "url": "https://biedronka.okazjum.pl/sklepy/gdansk/"},
{"business": "Biedronka", "opening_hours": "06:00-22:00", "address": "ul. Potokowa 15D", "city": "Gdańsk", "url": "https://biedronka.okazjum.pl/sklepy/gdansk/"},
{"business": "Biedronka", "opening_hours": "06:00-23:00", "address": "ul. Główna 27A", "city": "Przejazdowo", "url": "https://biedronka.okazjum.pl/sklepy/gdansk/"},
{"business": "Biedronka", "opening_hours": "06:00-22:00", "address": "ul. Myśliwska 102", "city": "Gdańsk", "url": "https://biedronka.okazjum.pl/sklepy/gdansk/"},
{"business": "Biedronka", "opening_hours": "06:00-22:00", "address": "al. Gen. Józefa Hallera 233A", "city": "Gdańsk", "url": "https://biedronka.okazjum.pl/sklepy/gdansk/"},
{"business": "Biedronka", "opening_hours": "06:00-22:00", "address": "ul. Konrada Guderskiego 10", "city": "Gdańsk", "url": "https://biedronka.okazjum.pl/sklepy/gdansk/"},
{"business": "Biedronka", "opening_hours": "06:00-23:00", "address": "ul. Startowa 14", "city": "Gdańsk", "url": "https://biedronka.okazjum.pl/sklepy/gdansk/"},
{"business": "Biedronka", "opening_hours": "06:00-22:00", "address": "ul. Jelitkowski Dwór 2", "city": "Gdańsk", "url": "https://biedronka.okazjum.pl/sklepy/gdansk/"},
{"business": "Biedronka", "opening_hours": "06:00-22:00", "address": "ul. Opolska 3", "city": "Gdańsk", "url": "https://biedronka.okazjum.pl/sklepy/gdansk/"},
{"business": "Biedronka", "opening_hours": "06:00-23:00", "address": "ul. Zeusa 1A", "city": "Kowale", "url": "https://biedronka.okazjum.pl/sklepy/gdansk/"},
{"business": "Biedronka", "opening_hours": "06:00-22:00", "address": "ul. Jabłoniowa 46", "city": "Gdańsk", "url": "https://biedronka.okazjum.pl/sklepy/gdansk/"},
{"business": "Biedronka", "opening_hours": "06:00-23:00", "address": "ul. Chłopska 16B", "city": "Gdańsk", "url": "https://biedronka.okazjum.pl/sklepy/gdansk/"},
{"business": "Biedronka", "opening_hours": "06:00-22:00", "address": "ul. Jagiellońska 2A", "city": "Gdańsk", "url": "https://biedronka.okazjum.pl/sklepy/gdansk/"},
{"business": "Biedronka", "opening_hours": "07:00-21:00", "address": "ul. Starogardzka 1", "city": "Straszyn", "url": "https://biedronka.okazjum.pl/sklepy/gdansk/"},
{"business": "Biedronka", "opening_hours": "06:00-22:00", "address": "ul. Prezydenta Lecha Kaczyńskiego 20", "city": "Gdańsk", "url": "https://biedronka.okazjum.pl/sklepy/gdansk/"},
{"business": "Biedronka", "opening_hours": "06:00-22:00", "address": "ul. Prezydenta Lecha Kaczyńskiego 5", "city": "Gdańsk", "url": "https://biedronka.okazjum.pl/sklepy/gdansk/"},
{"business": "Biedronka", "opening_hours": "06:00-23:00", "address": "ul. Czerwony Dwór 24", "city": "Gdańsk", "url": "https://biedronka.okazjum.pl/sklepy/gdansk/"},
{"business": "Biedronka", "opening_hours": "06:00-22:00", "address": "ul. Leona Droszyńskiego 28A", "city": "Gdańsk", "url": "https://biedronka.okazjum.pl/sklepy/gdansk/"},
{"business": "Biedronka", "opening_hours": "06:00-21:00", "address": "ul. Kaprów 3", "city": "Gdańsk", "url": "https://biedronka.okazjum.pl/sklepy/gdansk/"},
{"business": "Biedronka", "opening_hours": "06:00-23:00", "address": "ul. Pomorska 25", "city": "Gdańsk", "url": "https://biedronka.okazjum.pl/sklepy/gdansk/"},
{"business": "Biedronka", "opening_hours": "06:00-23:00", "address": "ul. Jana Kasprowicza 40", "city": "Pruszcz Gdański", "url": "https://biedronka.okazjum.pl/sklepy/gdansk/"},
{"business": "Biedronka", "opening_hours": "06:00-23:00", "address": "ul. Antoniego Dobrowolskiego 2", "city": "Pruszcz Gdański", "url": "https://biedronka.okazjum.pl/sklepy/gdansk/"},
{"business": "Biedronka", "opening_hours": "06:00-22:00", "address": "al. Ks. Józefa Waląga 1", "city": "Pruszcz Gdański", "url": "https://biedronka.okazjum.pl/sklepy/gdansk/"},
{"business": "Biedronka", "opening_hours": "06:00-22:00", "address": "ul. Juliusza Słowackiego 159", "city": "Gdańsk", "url": "https://biedronka.okazjum.pl/sklepy/gdansk/"},
{"business": "Biedronka", "opening_hours": "06:00-23:00", "address": "ul. Gen. Stanisława Skalskiego 1", "city": "Pruszcz Gdański", "url": "https://biedronka.okazjum.pl/sklepy/gdansk/"},
{"business": "Biedronka", "opening_hours": "06:00-22:30", "address": "ul. Kartuska 467", "city": "Gdańsk", "url": "https://biedronka.okazjum.pl/sklepy/gdansk/"},
{"business": "Biedronka", "opening_hours": "06:00-22:00", "address": "al. Niepodległości 813a", "city": "Sopot", "url": "https://biedronka.okazjum.pl/sklepy/gdansk/"},
{"business": "Biedronka", "opening_hours": "06:00-22:00", "address": "al. Niepodległości 691", "city": "Sopot", "url": "https://biedronka.okazjum.pl/sklepy/gdansk/"},
{"business": "Biedronka", "opening_hours": "06:00-22:00", "address": "ul. Dojazdowa 2", "city": "Lublewo Gdańskie", "url": "https://biedronka.okazjum.pl/sklepy/gdansk/"},
{"business": "Biedronka", "opening_hours": "06:00-22:00", "address": "ul. Meteorytowa 11", "city": "Gdańsk", "url": "https://biedronka.okazjum.pl/sklepy/gdansk/"},
{"business": "Biedronka", "opening_hours": "06:00-23:00", "address": "ul. Sosnowa 1", "city": "Cieplewo", "url": "https://biedronka.okazjum.pl/sklepy/gdansk/"},
{"business": "Biedronka", "opening_hours": "06:00-22:00", "address": "ul. Wejherowska 35", "city": "Sopot", "url": "https://biedronka.okazjum.pl/sklepy/gdansk/"},
{"business": "Biedronka", "opening_hours": "06:00-22:00", "address": "ul. Koziorożca 38", "city": "Gdańsk", "url": "https://biedronka.okazjum.pl/sklepy/gdansk/"},
{"business": "Biedronka", "opening_hours": "06:00-22:00", "address": "ul. Osowski Zakątek 17", "city": "Gdańsk", "url": "https://biedronka.okazjum.pl/sklepy/gdansk/"},
{"business": "Kaufland", "opening_hours": "07:00-22:00", "address": "ul. Cienista 30", "city": "Gdańsk", "url": "https://kaufland.okazjum.pl/sklepy/gdansk/"},
{"business": "Biedronka", "opening_hours": "09:00-18:00", "address": "ul. Wacława Balcerskiego 12", "city": "Gdańsk", "url": "https://biedronka.okazjum.pl/sklepy/gdansk/"},
{"business": "Biedronka", "opening_hours": "06:00-22:00", "address": "ul. Wacława Balcerskiego 2", "city": "Gdańsk", "url": "https://biedronka.okazjum.pl/sklepy/gdansk/"},
{"business": "Biedronka", "opening_hours": "06:00-23:00", "address": "ul. Korzenna 251", "city": "Korzenna", "url": "https://biedronka.okazjum.pl/sklepy/gdansk/"},
{"business": "Biedronka", "opening_hours": "06:00-22:00", "address": "ul. Korzenna 19/4", "city": "Gdynia", "url": "https://biedronka.okazjum.pl/sklepy/gdansk/"},
{"business": "Biedronka", "opening_hours": "06:00-23:00", "address": "ul. Borowiecka 2", "city": "Banino", "url": "https://biedronka.okazjum.pl/sklepy/gdansk/"},
{"business": "Biedronka", "opening_hours": "06:00-22:00", "address": "ul. Legionów 112", "city": "Gdynia", "url": "https://biedronka.okazjum.pl/sklepy/gdansk/"},
{"business": "Biedronka", "opening_hours": "06:00-22:00", "address": "ul. Jarosława Iwaszkiewicza 1", "city": "Gdynia", "url": "https://biedronka.okazjum.pl/sklepy/gdansk/"},
{"business": "Biedronka", "opening_hours": "06:00-22:00", "address": "ul. Halicka 7A", "city": "Gdynia", "url": "https://biedronka.okazjum.pl/sklepy/gdansk/"},
{"business": "Biedronka", "opening_hours": "06:00-22:00", "address": "ul. Sojowa 35", "city": "Gdynia", "url": "https://biedronka.okazjum.pl/sklepy/gdansk/"},
{"business": "Biedronka", "opening_hours": "06:00-22:00", "address": "ul. Wiczlińska 45A", "city": "Gdynia", "url": "https://biedronka.okazjum.pl/sklepy/gdansk/"},
{"business": "Biedronka", "opening_hours": "06:00-23:00", "address": "ul. Adama Mickiewicza 2", "city": "Kartuzy", "url": "https://biedronka.okazjum.pl/sklepy/gdansk/"},
{"business": "Biedronka", "opening_hours": "06:00-22:00", "address": "ul. Mikołaja Kopernika 36", "city": "Gdynia", "url": "https://biedronka.okazjum.pl/sklepy/gdansk/"},
{"business": "Biedronka", "opening_hours": "06:00-22:00", "address": "ul. II Morskiego Pułku Strzelców 1", "city": "Gdynia", "url": "https://biedronka.okazjum.pl/sklepy/gdansk/"},
{"business": "Biedronka", "opening_hours": "06:00-22:00", "address": "ul. Gdańska 1", "city": "Pszczółki", "url": "https://biedronka.okazjum.pl/sklepy/gdansk/"},
{"business": "Biedronka", "opening_hours": "06:00-23:00", "address": "ul. Oliwska 139", "city": "Chwaszczyno", "url": "https://biedronka.okazjum.pl/sklepy/gdansk/"},
{"business": "Biedronka", "opening_hours": "06:00-23:00", "address": "ul. Książąt Pomorskich 2D", "city": "Żukowo", "url": "https://biedronka.okazjum.pl/sklepy/gdansk/"},
{"business": "Biedronka", "opening_hours": "06:00-22:00", "address": "ul. Strażacka 2", "city": "Gdynia", "url": "https://biedronka.okazjum.pl/sklepy/gdansk/"},
{"business": "Biedronka", "opening_hours": "06:00-22:00", "address": "ul. Józefa Bema 22/24", "city": "Gdynia", "url": "https://biedronka.okazjum.pl/sklepy/gdansk/"},
{"business": "Top Market", "opening_hours": "06:00-21:00", "address": "ul. Trubadurów 6/G", "city": "Gdańsk", "url": "https://topmarket.okazjum.pl/sklepy/gdansk/"},
{"business": "Top Market", "opening_hours": "08:00-22:00", "address": "ul. 23 Marca 77c", "city": "Sopot", "url": "https://topmarket.okazjum.pl/sklepy/gdansk/"},
{"business": "Top Market", "opening_hours": "07:00-21:00", "address": "ul. Wierzbowa 36", "city": "Gdynia", "url": "https://topmarket.okazjum.pl/sklepy/gdansk/"},
{"business": "Top Market", "opening_hours": "06:30-21:00", "address": "ul. Łapińska 26", "city": "Przyjaźń", "url": "https://topmarket.okazjum.pl/sklepy/gdansk/"},
{"business": "Top Market", "opening_hours": "06:00-21:00", "address": "ul. Bohaterów Starówki Warszawskiej 6", "city": "Gdynia", "url": "https://topmarket.okazjum.pl/sklepy/gdansk/"},
{"business": "Top Market", "opening_hours": "08:00-23:00", "address": "ul. Gdyńska 37", "city": "Żukowo", "url": "https://topmarket.okazjum.pl/sklepy/gdansk/"},
{"business": "Carrefour Market", "opening_hours": "06:00-22:00", "address": "ul. Cygańska Góra 3F", "city": "Gdańsk", "url": "https://carrefour-market.okazjum.pl/sklepy/gdansk/"},
{"business": "Carrefour Market", "opening_hours": "06:00-22:00", "address": "ul. Rogalińska 1", "city": "Gdańsk", "url": "https://carrefour-market.okazjum.pl/sklepy/gdansk/"},
{"business": "Carrefour Market", "opening_hours": "06:00-22:00", "address": "ul. Kołobrzeska 54", "city": "Gdańsk", "url": "https://carrefour-market.okazjum.pl/sklepy/gdansk/"},
{"business": "Carrefour Market", "opening_hours": "06:00-22:00", "address": "ul. Tadeusza Kościuszki 26", "city": "Sopot", "url": "https://carrefour-market.okazjum.pl/sklepy/gdansk/"},
{"business": "Stokrotka", "opening_hours": "06:30-22:00", "address": "ul. Piotrkowska 25", "city": "Gdańsk", "url": "https://stokrotka.okazjum.pl/sklepy/gdansk/"},
{"business": "Stokrotka", "opening_hours": "06:30-22:00", "address": "ul. Niepołomicka 32", "city": "Gdańsk", "url": "https://stokrotka.okazjum.pl/sklepy/gdansk/"},
{"business": "Stokrotka", "opening_hours": "06:30-22:00", "address": "ul. Pólnicy 9", "city": "Gdańsk", "url": "https://stokrotka.okazjum.pl/sklepy/gdansk/"},
{"business": "Stokrotka", "opening_hours": "06:30-22:00", "address": "al. Jana Pawła II 9-", "city": "Gdańsk", "url": "https://stokrotka.okazjum.pl/sklepy/gdansk/"},
{"business": "Stokrotka", "opening_hours": "07:00-22:00", "address": "ul. Klasyczna 2", "city": "Borkowo", "url": "https://stokrotka.okazjum.pl/sklepy/gdansk/"},
{"business": "Stokrotka", "opening_hours": "06:30-22:00", "address": "ul. Jagiellońska 34", "city": "Gdańsk", "url": "https://stokrotka.okazjum.pl/sklepy/gdansk/"},
{"business": "Stokrotka", "opening_hours": "07:00-22:00", "address": "ul. Adama Mickiewicza 1", "city": "Pruszcz Gdański", "url": "https://stokrotka.okazjum.pl/sklepy/gdansk/"},
{"business": "Stokrotka", "opening_hours": "06:00-22:00", "address": "ul. Długa 103 B 63", "city": "Cieplewo", "url": "https://stokrotka.okazjum.pl/sklepy/gdansk/"},
{"business": "Stokrotka", "opening_hours": "06:30-22:00", "address": "ul. Korzenna 17", "city": "Gdynia", "url": "https://stokrotka.okazjum.pl/sklepy/gdansk/"},
{"business": "Stokrotka", "opening_hours": "07:00-22:00", "address": "ul. Nowowiczlińska 115", "city": "Gdynia", "url": "https://stokrotka.okazjum.pl/sklepy/gdansk/"},
{"business": "Stokrotka Express", "opening_hours": "06:00-23:00", "address": "ul. Stara Stocznia 10", "city": "Gdańsk", "url": "https://stokrotka-express.okazjum.pl/sklepy/gdansk/"},
{"business": "Stokrotka Express", "opening_hours": "06:00-23:45", "address": "ul. Starowiejska 63", "city": "Gdańsk", "url": "https://stokrotka-express.okazjum.pl/sklepy/gdansk/"},
{"business": "Spar", "opening_hours": "08:00-22:00", "address": "ul. Nieborowska 8", "city": "Gdańsk", "url": "https://spar.okazjum.pl/sklepy/gdansk/"},
{"business": "Spar", "opening_hours": "08:00-22:00", "address": "ul. Świętokrzyska 21", "city": "Gdańsk", "url": "https://spar.okazjum.pl/sklepy/gdansk/"},
{"business": "Stokrotka Market", "opening_hours": "06:30-21:30", "address": "ul. Osiek 12C", "city": "Osiek", "url": "https://stokrotka-market.okazjum.pl/sklepy/gdansk/"},
{"business": "Stokrotka Market", "opening_hours": "06:30-22:00", "address": "ul. Stężycka 64", "city": "Gdańsk", "url": "https://stokrotka-market.okazjum.pl/sklepy/gdansk/"},
{"business": "Stokrotka Market", "opening_hours": "06:30-22:00", "address": "ul. Śląska 66", "city": "Gdańsk", "url": "https://stokrotka-market.okazjum.pl/sklepy/gdansk/"},
{"business": "Stokrotka Market", "opening_hours": "06:00-21:00", "address": "ul. Dąbrówki 199", "city": "Dąbrówki", "url": "https://stokrotka-market.okazjum.pl/sklepy/gdansk/"},
{"business": "Stokrotka Market", "opening_hours": "06:30-22:00", "address": "ul. Widna 1", "city": "Gdynia", "url": "https://stokrotka-market.okazjum.pl/sklepy/gdansk/"},
{"business": "Lewiatan", "opening_hours": "07:00-21:00", "address": "ul. Siennicka 26", "city": "Gdańsk", "url": "https://lewiatan.okazjum.pl/sklepy/gdansk/"},
{"business": "Lewiatan", "opening_hours": "07:00-21:00", "address": "ul. Wojskiego 8 B", "city": "Gdańsk", "url": "https://lewiatan.okazjum.pl/sklepy/gdansk/"},
{"business": "Lewiatan", "opening_hours": "07:00-21:00", "address": "ul. Wilhelma Stryjewskiego 27", "city": "Gdańsk", "url": "https://lewiatan.okazjum.pl/sklepy/gdansk/"},
{"business": "Lewiatan", "opening_hours": "07:00-21:00", "address": "ul. Adama Mickiewicza 37", "city": "Gdańsk", "url": "https://lewiatan.okazjum.pl/sklepy/gdansk/"},
{"business": "Lewiatan", "opening_hours": "07:00-21:00", "address": "ul. Heleny Marusarzówny 2a", "city": "Gdańsk", "url": "https://lewiatan.okazjum.pl/sklepy/gdansk/"},
{"business": "Lewiatan", "opening_hours": "07:00-21:00", "address": "ul. Dywizjonu 303 303 25", "city": "Gdańsk", "url": "https://lewiatan.okazjum.pl/sklepy/gdansk/"},
{"business": "Lewiatan", "opening_hours": "07:00-21:00", "address": "ul. Wyzwolenia 51 F", "city": "Gdańsk", "url": "https://lewiatan.okazjum.pl/sklepy/gdansk/"},
{"business": "Lewiatan", "opening_hours": "07:00-21:00", "address": "ul. Jabłoniowa 21/8", "city": "Gdańsk", "url": "https://lewiatan.okazjum.pl/sklepy/gdansk/"},
{"business": "Lewiatan", "opening_hours": "07:00-21:00", "address": "ul. Konstantego Ildefonsa Gałczyńskiego 2", "city": "Gdańsk", "url": "https://lewiatan.okazjum.pl/sklepy/gdansk/"},
{"business": "Lewiatan", "opening_hours": "07:00-21:00", "address": "ul. Startowa 4", "city": "Gdańsk", "url": "https://lewiatan.okazjum.pl/sklepy/gdansk/"},
{"business": "Lewiatan", "opening_hours": "07:00-21:00", "address": "ul. Pilotów 23B", "city": "Gdańsk", "url": "https://lewiatan.okazjum.pl/sklepy/gdansk/"},
{"business": "Lewiatan", "opening_hours": "07:00-21:00", "address": "ul. gen. Władysława Andersa 18 Lok. U2", "city": "Gdańsk", "url": "https://lewiatan.okazjum.pl/sklepy/gdansk/"},
{"business": "Lewiatan", "opening_hours": "07:00-21:00", "address": "ul. Piotra Norblina 23", "city": "Gdańsk", "url": "https://lewiatan.okazjum.pl/sklepy/gdansk/"},
{"business": "Lewiatan", "opening_hours": "07:00-21:00", "address": "ul. Łowicka 16", "city": "Gdańsk", "url": "https://lewiatan.okazjum.pl/sklepy/gdansk/"},
{"business": "Lewiatan", "opening_hours": "07:00-21:00", "address": "ul. Antoniego Abrahama 15A", "city": "Gdańsk", "url": "https://lewiatan.okazjum.pl/sklepy/gdansk/"},
{"business": "Lewiatan", "opening_hours": "07:00-21:00", "address": "ul. Bałtycka 5", "city": "Rokitnica", "url": "https://lewiatan.okazjum.pl/sklepy/gdansk/"},
{"business": "Lewiatan", "opening_hours": "07:00-21:00", "address": "ul. Szyprów 1", "city": "Gdańsk", "url": "https://lewiatan.okazjum.pl/sklepy/gdansk/"},
{"business": "Lewiatan", "opening_hours": "07:00-21:00", "address": "ul. Sowia 2/1", "city": "Bąkowo", "url": "https://lewiatan.okazjum.pl/sklepy/gdansk/"},
{"business": "Lewiatan", "opening_hours": "07:00-21:00", "address": "ul. Stanisława Wyspiańskiego 63", "city": "Pruszcz Gdański", "url": "https://lewiatan.okazjum.pl/sklepy/gdansk/"},
{"business": "Lewiatan", "opening_hours": "07:00-21:00", "address": "ul. Mostów 7b", "city": "Mostów", "url": "https://lewiatan.okazjum.pl/sklepy/gdansk/"},
{"business": "Lewiatan", "opening_hours": "07:00-21:00", "address": "ul. 3 Maja 17", "city": "Sopot", "url": "https://lewiatan.okazjum.pl/sklepy/gdansk/"},
{"business": "Lewiatan", "opening_hours": "07:00-21:00", "address": "ul. Grunwaldzka 80", "city": "Sopot", "url": "https://lewiatan.okazjum.pl/sklepy/gdansk/"},
{"business": "Lewiatan", "opening_hours": "07:00-21:00", "address": "ul. Fryderyka Chopina 43", "city": "Sopot", "url": "https://lewiatan.okazjum.pl/sklepy/gdansk/"},
{"business": "Lewiatan", "opening_hours": "07:00-21:00", "address": "ul. Jana Jerzego Haffnera 44", "city": "Sopot", "url": "https://lewiatan.okazjum.pl/sklepy/gdansk/"},
{"business": "Lewiatan", "opening_hours": "07:00-21:00", "address": "ul. Grabowo 28", "city": "Grabowo", "url": "https://lewiatan.okazjum.pl/sklepy/gdansk/"},
{"business": "Lewiatan", "opening_hours": "07:00-21:00", "address": "ul. Brunona Gregorkiewicza 60", "city": "Bielkówko", "url": "https://lewiatan.okazjum.pl/sklepy/gdansk/"},
{"business": "Lewiatan", "opening_hours": "07:00-21:00", "address": "ul. Wodnika 2", "city": "Gdańsk", "url": "https://lewiatan.okazjum.pl/sklepy/gdansk/"},
{"business": "Lewiatan", "opening_hours": "07:00-21:00", "address": "ul. Dworcowa 1", "city": "Kolbudy", "url": "https://lewiatan.okazjum.pl/sklepy/gdansk/"},
{"business": "Lewiatan", "opening_hours": "07:00-21:00", "address": "ul. Barniewicka 107", "city": "Gdańsk", "url": "https://lewiatan.okazjum.pl/sklepy/gdansk/"},
{"business": "Lewiatan", "opening_hours": "07:00-21:00", "address": "ul. Źródło Marii 19 L", "city": "Gdynia", "url": "https://lewiatan.okazjum.pl/sklepy/gdansk/"},
{"business": "Lewiatan", "opening_hours": "07:00-21:00", "address": "ul. Piłsudskiego 4", "city": "Żukowo", "url": "https://lewiatan.okazjum.pl/sklepy/gdansk/"},
{"business": "Lewiatan", "opening_hours": "07:00-21:00", "address": "ul. Pomorska 39", "city": "Pszczółki", "url": "https://lewiatan.okazjum.pl/sklepy/gdansk/"},
{"business": "Eurospar", "opening_hours": "09:00-22:00", "address": "ul. Kołobrzeska 41C", "city": "Gdańsk", "url": "https://eurospar.okazjum.pl/sklepy/gdansk/"},
{"business": "Eurospar", "opening_hours": "08:00-21:30", "address": "al. Grunwaldzka 82", "city": "Gdańsk", "url": "https://eurospar.okazjum.pl/sklepy/gdansk/"},
{"business": "Eurospar", "opening_hours": "09:00-22:00", "address": "al. Grunwaldzka 471", "city": "Gdańsk", "url": "https://eurospar.okazjum.pl/sklepy/gdansk/"},
{"business": "Eurospar", "opening_hours": "08:00-22:00", "address": "al. Zwycięstwa 256", "city": "Gdynia", "url": "https://eurospar.okazjum.pl/sklepy/gdansk/"},
{"business": "Żabka", "opening_hours": "06:00-23:00", "address": "ul. Szeroka 82/83", "city": "Gdańsk", "url": "https://zabka.okazjum.pl/sklepy/gdansk/"},
{"business": "Żabka", "opening_hours": "06:00-23:00", "address": "ul. Chlebnicka 45/46", "city": "Gdańsk", "url": "https://zabka.okazjum.pl/sklepy/gdansk/"},
{"business": "Żabka", "opening_hours": "06:00-23:00", "address": "ul. Stągiewna 10/1", "city": "Gdańsk", "url": "https://zabka.okazjum.pl/sklepy/gdansk/"},
{"business": "Żabka", "opening_hours": "06:00-23:00", "address": "ul. Długie Ogrody 11", "city": "Gdańsk", "url": "https://zabka.okazjum.pl/sklepy/gdansk/"},
{"business": "Żabka", "opening_hours": "06:00-23:00", "address": "ul. Długa 59/61", "city": "Gdańsk", "url": "https://zabka.okazjum.pl/sklepy/gdansk/"},
{"business": "Żabka", "opening_hours": "06:00-23:00", "address": "ul. Szafarnia 11", "city": "Gdańsk", "url": "https://zabka.okazjum.pl/sklepy/gdansk/"},
{"business": "Żabka", "opening_hours": "06:00-23:00", "address": "ul. Angielska Grobla 5", "city": "Gdańsk", "url": "https://zabka.okazjum.pl/sklepy/gdansk/"},
{"business": "Żabka", "opening_hours": "06:00-23:00", "address": "ul. Lawendowa 5", "city": "Gdańsk", "url": "https://zabka.okazjum.pl/sklepy/gdansk/"},
{"business": "Żabka", "opening_hours": "06:00-23:00", "address": "ul. Targ Rybny 6A", "city": "Gdańsk", "url": "https://zabka.okazjum.pl/sklepy/gdansk/"},
{"business": "Żabka", "opening_hours": "06:00-23:00", "address": "ul. Długie Ogrody 18 LOK.U03", "city": "Gdańsk", "url": "https://zabka.okazjum.pl/sklepy/gdansk/"},
{"business": "Żabka", "opening_hours": "06:00-23:00", "address": "ul. Węglarska 1/4", "city": "Gdańsk", "url": "https://zabka.okazjum.pl/sklepy/gdansk/"},
{"business": "Żabka", "opening_hours": "06:00-23:00", "address": "ul. Garbary 5", "city": "Gdańsk", "url": "https://zabka.okazjum.pl/sklepy/gdansk/"},
{"business": "Żabka", "opening_hours": "06:00-23:00", "address": "ul. Podwale Staromiejskie 96/97", "city": "Gdańsk", "url": "https://zabka.okazjum.pl/sklepy/gdansk/"},
{"business": "Żabka", "opening_hours": "06:00-23:00", "address": "ul. Tartaczna 3/1", "city": "Gdańsk", "url": "https://zabka.okazjum.pl/sklepy/gdansk/"},
{"business": "Żabka", "opening_hours": "06:00-23:00", "address": "ul. Chmielna 3", "city": "Gdańsk", "url": "https://zabka.okazjum.pl/sklepy/gdansk/"},
{"business": "Żabka", "opening_hours": "06:00-23:00", "address": "ul. Chmielna 72", "city": "Gdańsk", "url": "https://zabka.okazjum.pl/sklepy/gdansk/"},
{"business": "Żabka", "opening_hours": "06:00-23:00", "address": "ul. Chmielna 95/1", "city": "Gdańsk", "url": "https://zabka.okazjum.pl/sklepy/gdansk/"},
{"business": "Żabka", "opening_hours": "06:00-23:00", "address": "ul. Kowalska 9", "city": "Gdańsk", "url": "https://zabka.okazjum.pl/sklepy/gdansk/"},
{"business": "Żabka", "opening_hours": "06:00-23:00", "address": "ul. Targ Drzewny 12/14", "city": "Gdańsk", "url": "https://zabka.okazjum.pl/sklepy/gdansk/"},
{"business": "Żabka", "opening_hours": "06:00-23:00", "address": "ul. Stara Stocznia 2", "city": "Gdańsk", "url": "https://zabka.okazjum.pl/sklepy/gdansk/"},
{"business": "Żabka", "opening_hours": "06:00-23:00", "address": "ul. Łąkowa 60d", "city": "Gdańsk", "url": "https://zabka.okazjum.pl/sklepy/gdansk/"},
{"business": "Żabka", "opening_hours": "06:00-23:00", "address": "ul. Toruńska 15", "city": "Gdańsk", "url": "https://zabka.okazjum.pl/sklepy/gdansk/"},
{"business": "Żabka", "opening_hours": "06:00-23:00", "address": "ul. Żabi Kruk 10", "city": "Gdańsk", "url": "https://zabka.okazjum.pl/sklepy/gdansk/"},
{"business": "Żabka", "opening_hours": "06:00-23:00", "address": "ul. Grobla III 1/6d", "city": "Gdańsk", "url": "https://zabka.okazjum.pl/sklepy/gdansk/"},
{"business": "Żabka", "opening_hours": "06:00-23:00", "address": "ul. Długa Grobla 8", "city": "Gdańsk", "url": "https://zabka.okazjum.pl/sklepy/gdansk/"},
{"business": "Żabka", "opening_hours": "06:00-23:00", "address": "ul. Wilcza 1", "city": "Gdańsk", "url": "https://zabka.okazjum.pl/sklepy/gdansk/"},
{"business": "Żabka", "opening_hours": "06:00-23:00", "address": "ul. Rajska 4", "city": "Gdańsk", "url": "https://zabka.okazjum.pl/sklepy/gdansk/"},
{"business": "Żabka", "opening_hours": "06:00-23:00", "address": "ul. Kamienna Grobla 30", "city": "Gdańsk", "url": "https://zabka.okazjum.pl/sklepy/gdansk/"},
{"business": "Żabka", "opening_hours": "06:00-23:00", "address": "ul. Jana Heweliusza 3", "city": "Gdańsk", "url": "https://zabka.okazjum.pl/sklepy/gdansk/"},
{"business": "Żabka", "opening_hours": "06:00-23:00", "address": "ul. Jana Heweliusza 19", "city": "Gdańsk", "url": "https://zabka.okazjum.pl/sklepy/gdansk/"},
{"business": "Żabka", "opening_hours": "06:00-23:00", "address": "ul. Toruńska 20", "city": "Gdańsk", "url": "https://zabka.okazjum.pl/sklepy/gdansk/"},
{"business": "Żabka", "opening_hours": "06:00-23:00", "address": "ul. Elbląska 65", "city": "Gdańsk", "url": "https://zabka.okazjum.pl/sklepy/gdansk/"},
{"business": "Żabka", "opening_hours": "06:00-23:00", "address": "ul. Ks. Jerzego Popiełuszki 26", "city": "Gdańsk", "url": "https://zabka.okazjum.pl/sklepy/gdansk/"},
{"business": "Żabka", "opening_hours": "06:00-23:00", "address": "ul. Nowomiejska 3", "city": "Gdańsk", "url": "https://zabka.okazjum.pl/sklepy/gdansk/"},
{"business": "Żabka", "opening_hours": "06:00-23:00", "address": "ul. Robotnicza 16", "city": "Gdańsk", "url": "https://zabka.okazjum.pl/sklepy/gdansk/"},
{"business": "Żabka", "opening_hours": "06:00-23:00", "address": "ul. Powstańców Warszawskich 19", "city": "Gdańsk", "url": "https://zabka.okazjum.pl/sklepy/gdansk/"},
{"business": "Żabka", "opening_hours": "06:00-23:00", "address": "ul. Bajki 2C", "city": "Gdańsk", "url": "https://zabka.okazjum.pl/sklepy/gdansk/"},
{"business": "Żabka", "opening_hours": "06:00-23:00", "address": "ul. Teofila Lenartowicza 24", "city": "Gdańsk", "url": "https://zabka.okazjum.pl/sklepy/gdansk/"},
{"business": "Żabka", "opening_hours": "06:00-23:00", "address": "ul. Zakopiańska 10A", "city": "Gdańsk", "url": "https://zabka.okazjum.pl/sklepy/gdansk/"},
{"business": "Żabka", "opening_hours": "06:00-23:00", "address": "ul. Kartuska 78", "city": "Gdańsk", "url": "https://zabka.okazjum.pl/sklepy/gdansk/"},
{"business": "Żabka", "opening_hours": "06:00-23:00", "address": "ul. Stanisława Worcella 2A", "city": "Gdańsk", "url": "https://zabka.okazjum.pl/sklepy/gdansk/"},
{"business": "Żabka", "opening_hours": "06:00-23:00", "address": "ul. Trakt Św. Wojciecha 18A", "city": "Gdańsk", "url": "https://zabka.okazjum.pl/sklepy/gdansk/"},
{"business": "Żabka", "opening_hours": "06:00-23:00", "address": "ul. Jacka Malczewskiego 85", "city": "Gdańsk", "url": "https://zabka.okazjum.pl/sklepy/gdansk/"},
{"business": "Żabka", "opening_hours": "06:00-23:00", "address": "ul. Henryka Hubertusa Jabłońskiego 17/1A", "city": "Gdańsk", "url": "https://zabka.okazjum.pl/sklepy/gdansk/"},
{"business": "Żabka", "opening_hours": "06:00-23:00", "address": "ul. Tytusa Chałubińskiego 31", "city": "Gdańsk", "url": "https://zabka.okazjum.pl/sklepy/gdansk/"},
{"business": "Żabka", "opening_hours": "06:00-23:00", "address": "ul. Marcina Dragana 15f", "city": "Gdańsk", "url": "https://zabka.okazjum.pl/sklepy/gdansk/"},
{"business": "Żabka", "opening_hours": "06:00-23:00", "address": "ul. Szara 35", "city": "Gdańsk", "url": "https://zabka.okazjum.pl/sklepy/gdansk/"},
{"business": "Żabka", "opening_hours": "06:00-23:00", "address": "ul. Niccolo Paganiniego 2", "city": "Gdańsk", "url": "https://zabka.okazjum.pl/sklepy/gdansk/"},
{"business": "Żabka", "opening_hours": "06:00-23:00", "address": "ul. Trakt Św. Wojciecha 123", "city": "Gdańsk", "url": "https://zabka.okazjum.pl/sklepy/gdansk/"},
{"business": "Żabka", "opening_hours": "06:00-23:00", "address": "ul. Władysława Cieszyńskiego 29", "city": "Gdańsk", "url": "https://zabka.okazjum.pl/sklepy/gdansk/"},
{"business": "Żabka", "opening_hours": "06:00-23:00", "address": "ul. Romualda Traugutta 86", "city": "Gdańsk", "url": "https://zabka.okazjum.pl/sklepy/gdansk/"},
{"business": "Żabka", "opening_hours": "06:00-23:00", "address": "ul. Ignacego Paderewskiego 9/1A", "city": "Gdańsk", "url": "https://zabka.okazjum.pl/sklepy/gdansk/"},
{"business": "Żabka", "opening_hours": "06:00-23:00", "address": "ul. Ignacego Paderewskiego 11B", "city": "Łódź", "url": "https://zabka.okazjum.pl/sklepy/gdansk/"},
{"business": "Żabka", "opening_hours": "06:00-23:00", "address": "ul. Ignacego Paderewskiego 55", "city": "Łódź", "url": "https://zabka.okazjum.pl/sklepy/gdansk/"},
{"business": "Żabka", "opening_hours": "06:00-23:00", "address": "ul. Chwaszczyńska 7", "city": "Gdańsk", "url": "https://zabka.okazjum.pl/sklepy/gdansk/"},
{"business": "Żabka", "opening_hours": "06:00-23:00", "address": "ul. Gościnna 5", "city": "Gdańsk", "url": "https://zabka.okazjum.pl/sklepy/gdansk/"},
{"business": "Żabka", "opening_hours": "06:00-23:00", "address": "ul. Władysława Cieszyńskiego 6", "city": "Gdańsk", "url": "https://zabka.okazjum.pl/sklepy/gdansk/"},
{"business": "Żabka", "opening_hours": "06:00-23:00", "address": "ul. Kliniczna 1B", "city": "Gdańsk", "url": "https://zabka.okazjum.pl/sklepy/gdansk/"},
{"business": "Żabka", "opening_hours": "06:00-23:00", "address": "ul. Wilhelma Stryjewskiego 19", "city": "Gdańsk", "url": "https://zabka.okazjum.pl/sklepy/gdansk/"},
{"business": "Żabka", "opening_hours": "06:00-23:00", "address": "ul. Mikołaja Reja 38", "city": "Gdańsk", "url": "https://zabka.okazjum.pl/sklepy/gdansk/"},
{"business": "Żabka", "opening_hours": "06:00-23:00", "address": "ul. Stanisława Wyspiańskiego 2", "city": "Gdańsk", "url": "https://zabka.okazjum.pl/sklepy/gdansk/"},
{"business": "Żabka", "opening_hours": "06:00-23:00", "address": "ul. Otwarta 61-63", "city": "Gdańsk", "url": "https://zabka.okazjum.pl/sklepy/gdansk/"},
{"business": "Żabka", "opening_hours": "06:00-23:00", "address": "ul. Kolonia Zręby 14", "city": "Gdańsk", "url": "https://zabka.okazjum.pl/sklepy/gdansk/"},
{"business": "Żabka", "opening_hours": "06:00-23:00", "address": "ul. Platynowa 10", "city": "Gdańsk", "url": "https://zabka.okazjum.pl/sklepy/gdansk/"},
{"business": "Żabka", "opening_hours": "06:00-23:00", "address": "ul. Platynowa 2", "city": "Gdańsk", "url": "https://zabka.okazjum.pl/sklepy/gdansk/"},
{"business": "Żabka", "opening_hours": "06:00-23:00", "address": "ul. Szpaki 1", "city": "Gdańsk", "url": "https://zabka.okazjum.pl/sklepy/gdansk/"},
{"business": "Żabka", "opening_hours": "06:00-23:00", "address": "ul. Do Studzienki 11", "city": "Gdańsk", "url": "https://zabka.okazjum.pl/sklepy/gdansk/"},
{"business": "Żabka", "opening_hours": "06:00-23:00", "address": "ul. Ks. Leona Miszewskiego 18", "city": "Gdańsk", "url": "https://zabka.okazjum.pl/sklepy/gdansk/"},
{"business": "Żabka", "opening_hours": "06:00-23:00", "address": "al. Grunwaldzka 99-101", "city": "Gdańsk", "url": "https://zabka.okazjum.pl/sklepy/gdansk/"},
{"business": "Żabka", "opening_hours": "06:00-23:00", "address": "ul. Franciszka Rakoczego 30", "city": "Gdańsk", "url": "https://zabka.okazjum.pl/sklepy/gdansk/"},
{"business": "Żabka", "opening_hours": "06:00-23:00", "address": "ul. Pawia 4", "city": "Gdańsk", "url": "https://zabka.okazjum.pl/sklepy/gdansk/"},
{"business": "Żabka", "opening_hours": "06:00-23:00", "address": "ul. Nieborowska 10", "city": "Gdańsk", "url": "https://zabka.okazjum.pl/sklepy/gdansk/"},
{"business": "Żabka", "opening_hours": "06:00-23:00", "address": "ul. Rogalińska 8", "city": "Gdańsk", "url": "https://zabka.okazjum.pl/sklepy/gdansk/"},
{"business": "Żabka", "opening_hours": "06:00-23:00", "address": "ul. Dąbrówki 922 I 3", "city": "Gdańsk", "url": "https://zabka.okazjum.pl/sklepy/gdansk/"},
{"business": "Żabka", "opening_hours": "06:00-23:00", "address": "ul. Zofii Nałkowskiej 3", "city": "Gdańsk", "url": "https://zabka.okazjum.pl/sklepy/gdansk/"},
{"business": "Żabka", "opening_hours": "06:00-23:00", "address": "ul. Stanisława Lema 2", "city": "Gdańsk", "url": "https://zabka.okazjum.pl/sklepy/gdansk/"},
{"business": "Żabka", "opening_hours": "06:00-23:00", "address": "ul. Jaśkowa Dolina 130", "city": "Gdańsk", "url": "https://zabka.okazjum.pl/sklepy/gdansk/"},
{"business": "Żabka", "opening_hours": "06:00-23:00", "address": "ul. Jaśkowa Dolina 14", "city": "Gdańsk", "url": "https://zabka.okazjum.pl/sklepy/gdansk/"},
{"business": "Żabka", "opening_hours": "06:00-23:00", "address": "ul. Jaśkowa Dolina 132", "city": "Gdańsk", "url": "https://zabka.okazjum.pl/sklepy/gdansk/"},
{"business": "Żabka", "opening_hours": "06:00-23:00", "address": "ul. Ludwika Waryńskiego 4", "city": "Gdańsk", "url": "https://zabka.okazjum.pl/sklepy/gdansk/"},
{"business": "Żabka", "opening_hours": "06:00-23:00", "address": "ul. Adama Mickiewicza 9", "city": "Gdańsk", "url": "https://zabka.okazjum.pl/sklepy/gdansk/"},
{"business": "Żabka", "opening_hours": "06:00-23:00", "address": "ul. Ludwika Waryńskiego 26/27", "city": "Gdańsk", "url": "https://zabka.okazjum.pl/sklepy/gdansk/"},
{"business": "Żabka", "opening_hours": "06:00-23:00", "address": "ul. Stanisława Wyspiańskiego 25", "city": "Gdańsk", "url": "https://zabka.okazjum.pl/sklepy/gdansk/"},
{"business": "Żabka", "opening_hours": "06:00-23:00", "address": "ul. Partyzantów 14/101", "city": "Gdańsk", "url": "https://zabka.okazjum.pl/sklepy/gdansk/"},
{"business": "Żabka", "opening_hours": "06:00-23:00", "address": "ul. Płocka 5", "city": "Gdańsk", "url": "https://zabka.okazjum.pl/sklepy/gdansk/"},
{"business": "Żabka", "opening_hours": "06:00-23:00", "address": "ul. Cedrowa 31", "city": "Gdańsk", "url": "https://zabka.okazjum.pl/sklepy/gdansk/"},
{"business": "Żabka", "opening_hours": "06:00-23:00", "address": "ul. Przemyska 41A", "city": "Gdańsk", "url": "https://zabka.okazjum.pl/sklepy/gdansk/"},
{"business": "Żabka", "opening_hours": "06:00-23:00", "address": "ul. Wajdeloty 10", "city": "Gdańsk", "url": "https://zabka.okazjum.pl/sklepy/gdansk/"},
{"business": "Żabka", "opening_hours": "06:00-23:00", "address": "ul. Cedrowa 27", "city": "Gdańsk", "url": "https://zabka.okazjum.pl/sklepy/gdansk/"},
{"business": "Żabka", "opening_hours": "06:00-23:00", "address": "ul. Romana Dmowskiego 12", "city": "Gdańsk", "url": "https://zabka.okazjum.pl/sklepy/gdansk/"},
{"business": "Żabka", "opening_hours": "06:00-23:00", "address": "ul. Romana Dmowskiego 14", "city": "Gdańsk", "url": "https://zabka.okazjum.pl/sklepy/gdansk/"},
{"business": "Żabka", "opening_hours": "06:00-23:00", "address": "ul. Warneńska 2", "city": "Gdańsk", "url": "https://zabka.okazjum.pl/sklepy/gdansk/"},
{"business": "Żabka", "opening_hours": "06:00-23:00", "address": "ul. Bolesława Chrobrego 27", "city": "Gdańsk", "url": "https://zabka.okazjum.pl/sklepy/gdansk/"},
{"business": "Żabka", "opening_hours": "06:00-23:00", "address": "ul. Klonowa 4B i 4C", "city": "Gdańsk", "url": "https://zabka.okazjum.pl/sklepy/gdansk/"},
{"business": "Żabka", "opening_hours": "06:00-23:00", "address": "ul. Jana Kilińskiego 9", "city": "Gdańsk", "url": "https://zabka.okazjum.pl/sklepy/gdansk/"},
{"business": "Auchan Supermarket", "opening_hours": "07:00-21:00", "address": "ul. Złota Karczma 26", "city": "Gdańsk", "url": "https://auchan-supermarket.okazjum.pl/sklepy/gdansk/"},
{"business": "Auchan Supermarket", "opening_hours": "07:00-21:00", "address": "ul. Redłowska 41", "city": "Gdynia", "url": "https://auchan-supermarket.okazjum.pl/sklepy/gdansk/"},
{"business": "Żabka", "opening_hours": "06:00-23:00", "address": "ul. Jana Kilińskiego 35", "city": "Siedlce", "url": "https://zabka.okazjum.pl/sklepy/gdansk/"},
{"business": "Żabka", "opening_hours": "06:00-23:00", "address": "ul. Warszawska 98", "city": "Gdańsk", "url": "https://zabka.okazjum.pl/sklepy/gdansk/"},
{"business": "Żabka", "opening_hours": "06:00-23:00", "address": "ul. Franciszka Rakoczego 9", "city": "Gdańsk", "url": "https://zabka.okazjum.pl/sklepy/gdansk/"},
{"business": "Żabka", "opening_hours": "06:00-23:00", "address": "ul. Bolesława Chrobrego 60", "city": "Gdańsk", "url": "https://zabka.okazjum.pl/sklepy/gdansk/"},
{"business": "Żabka", "opening_hours": "06:00-23:00", "address": "ul. Piotrkowska 9g", "city": "Gdańsk", "url": "https://zabka.okazjum.pl/sklepy/gdansk/"},
{"business": "Żabka", "opening_hours": "06:00-23:00", "address": "ul. Bulońska 18", "city": "Gdańsk", "url": "https://zabka.okazjum.pl/sklepy/gdansk/"},
{"business": "Żabka", "opening_hours": "06:00-23:00", "address": "ul. Starowiejska 93", "city": "Gdańsk", "url": "https://zabka.okazjum.pl/sklepy/gdansk/"},
{"business": "Żabka", "opening_hours": "06:00-23:00", "address": "ul. Heleny Marusarzówny 2", "city": "Gdańsk", "url": "https://zabka.okazjum.pl/sklepy/gdansk/"},
{"business": "Żabka", "opening_hours": "06:00-23:00", "address": "ul. Świętokrzyska 58 lok. 1/B", "city": "Gdańsk", "url": "https://zabka.okazjum.pl/sklepy/gdansk/"},
{"business": "Żabka", "opening_hours": "06:00-23:00", "address": "ul. Magellana 6a", "city": "Gdańsk", "url": "https://zabka.okazjum.pl/sklepy/gdansk/"},
{"business": "Żabka", "opening_hours": "06:00-23:00", "address": "ul. Tadeusza Kościuszki 117A", "city": "Gdańsk", "url": "https://zabka.okazjum.pl/sklepy/gdansk/"},
{"business": "Żabka", "opening_hours": "06:00-23:00", "address": "ul. Tadeusza Kościuszki 47", "city": "Gdańsk", "url": "https://zabka.okazjum.pl/sklepy/gdansk/"},
{"business": "Żabka", "opening_hours": "06:00-23:00", "address": "ul. Juliusza Słowackiego 2A", "city": "Gdańsk", "url": "https://zabka.okazjum.pl/sklepy/gdansk/"},
{"business": "Żabka", "opening_hours": "06:00-23:00", "address": "ul. Juliusza Słowackiego 8", "city": "Katowice", "url": "https://zabka.okazjum.pl/sklepy/gdansk/"},
{"business": "Żabka", "opening_hours": "06:00-23:00", "address": "ul. Srebrna 46/U2", "city": "Gdańsk", "url": "https://zabka.okazjum.pl/sklepy/gdansk/"},
{"business": "Żabka", "opening_hours": "06:00-23:00", "address": "al. Rzeczypospolitej 33", "city": "Gdańsk", "url": "https://zabka.okazjum.pl/sklepy/gdansk/"},
{"business": "Żabka", "opening_hours": "06:00-23:00", "address": "ul. Partyzantów 72/82", "city": "Gdańsk", "url": "https://zabka.okazjum.pl/sklepy/gdansk/"},
{"business": "Żabka", "opening_hours": "06:00-23:00", "address": "ul. Myśliwska 22", "city": "Gdańsk", "url": "https://zabka.okazjum.pl/sklepy/gdansk/"},
{"business": "Żabka", "opening_hours": "06:00-23:00", "address": "ul. Myśliwska 33C/52", "city": "Gdańsk", "url": "https://zabka.okazjum.pl/sklepy/gdansk/"},
{"business": "Żabka", "opening_hours": "06:00-23:00", "address": "ul. Letnicka 1g", "city": "Gdańsk", "url": "https://zabka.okazjum.pl/sklepy/gdansk/"},
{"business": "Żabka", "opening_hours": "06:00-23:00", "address": "ul. Grudziądzka 4 Kl. A", "city": "Gdańsk", "url": "https://zabka.okazjum.pl/sklepy/gdansk/"},
{"business": "Żabka", "opening_hours": "06:00-23:00", "address": "ul. Srebrna 2", "city": "Gdańsk", "url": "https://zabka.okazjum.pl/sklepy/gdansk/"},
{"business": "Żabka", "opening_hours": "06:00-23:00", "address": "ul. Stefana Drzewieckiego 9/3", "city": "Gdańsk", "url": "https://zabka.okazjum.pl/sklepy/gdansk/"},
{"business": "Żabka", "opening_hours": "06:00-23:00", "address": "ul. Żwirki i Wigury 10", "city": "Gdańsk", "url": "https://zabka.okazjum.pl/sklepy/gdansk/"},
{"business": "Żabka", "opening_hours": "06:00-23:00", "address": "ul. Królewskie Wzgórze 1", "city": "Gdańsk", "url": "https://zabka.okazjum.pl/sklepy/gdansk/"},
{"business": "Żabka", "opening_hours": "06:00-23:00", "address": "ul. Bolesława Leśmiana 9 lok. U14", "city": "Gdańsk", "url": "https://zabka.okazjum.pl/sklepy/gdansk/"},
{"business": "Żabka", "opening_hours": "06:00-23:00", "address": "ul. Władysława IV 7 .", "city": "Gdańsk", "url": "https://zabka.okazjum.pl/sklepy/gdansk/"},
{"business": "Żabka", "opening_hours": "06:00-23:00", "address": "ul. Dywizjonu 303 303 nr 1", "city": "Gdańsk", "url": "https://zabka.okazjum.pl/sklepy/gdansk/"},
{"business": "Żabka", "opening_hours": "06:00-23:00", "address": "ul. Starowiejska 48", "city": "Gdańsk", "url": "https://zabka.okazjum.pl/sklepy/gdansk/"},
{"business": "Żabka", "opening_hours": "06:00-23:00", "address": "ul. Wolności 21E", "city": "Gdańsk", "url": "https://zabka.okazjum.pl/sklepy/gdansk/"},
{"business": "Żabka", "opening_hours": "06:00-23:00", "address": "ul. Antoniego Słonimskiego 1/62", "city": "Gdańsk", "url": "https://zabka.okazjum.pl/sklepy/gdansk/"},
{"business": "Żabka", "opening_hours": "06:00-23:00", "address": "ul. Mariana Hemara 2", "city": "Gdańsk", "url": "https://zabka.okazjum.pl/sklepy/gdansk/"},
{"business": "Żabka", "opening_hours": "06:00-23:00", "address": "ul. Juliusza Słowackiego 51", "city": "Gdańsk", "url": "https://zabka.okazjum.pl/sklepy/gdansk/"},
{"business": "Żabka", "opening_hours": "06:00-23:00", "address": "ul. Bernarda Chrzanowskiego 11", "city": "Gdańsk", "url": "https://zabka.okazjum.pl/sklepy/gdansk/"},
{"business": "Żabka", "opening_hours": "06:00-23:00", "address": "al. Jana Pawła II 23 C", "city": "Gdańsk", "url": "https://zabka.okazjum.pl/sklepy/gdansk/"},
{"business": "Żabka", "opening_hours": "06:00-23:00", "address": "al. Jana Pawła II 6A", "city": "Gdańsk", "url": "https://zabka.okazjum.pl/sklepy/gdansk/"},
{"business": "Żabka", "opening_hours": "06:00-23:00", "address": "ul. Zbigniewa Burzyńskiego 9", "city": "Gdańsk", "url": "https://zabka.okazjum.pl/sklepy/gdansk/"},
{"business": "Carrefour Express", "opening_hours": "08:00-23:59", "address": "ul. Stągiewna 12 lok. 11", "city": "Gdańsk", "url": "https://carrefour-express.okazjum.pl/sklepy/gdansk/"},
{"business": "Carrefour Express", "opening_hours": "06:00-23:00", "address": "ul. Długa 67/68", "city": "Gdańsk", "url": "https://carrefour-express.okazjum.pl/sklepy/gdansk/"},
{"business": "Carrefour Express", "opening_hours": "07:00-23:00", "address": "ul. Kołodziejska 7 lok. 9B", "city": "Gdańsk", "url": "https://carrefour-express.okazjum.pl/sklepy/gdansk/"},
{"business": "Carrefour Express", "opening_hours": "06:00-22:00", "address": "ul. Marii Skłodowskiej-Curie 1A", "city": "Gdańsk", "url": "https://carrefour-express.okazjum.pl/sklepy/gdansk/"},
{"business": "Carrefour Express", "opening_hours": "06:00-22:00", "address": "ul. Marii Skłodowskiej-Curie 3", "city": "Gdańsk", "url": "https://carrefour-express.okazjum.pl/sklepy/gdansk/"},
{"business": "Carrefour Express", "opening_hours": "06:00-23:00", "address": "ul. Stanisława Lema 4/302", "city": "Gdańsk", "url": "https://carrefour-express.okazjum.pl/sklepy/gdansk/"},
{"business": "Carrefour Express", "opening_hours": "06:00-22:00", "address": "ul. Lawendowe Wzgórze 21/L.U. 1", "city": "Gdańsk", "url": "https://carrefour-express.okazjum.pl/sklepy/gdansk/"},
{"business": "Carrefour Express", "opening_hours": "06:00-23:00", "address": "ul. Przytulna 11", "city": "Gdańsk", "url": "https://carrefour-express.okazjum.pl/sklepy/gdansk/"},
{"business": "Carrefour Express", "opening_hours": "07:00-22:00", "address": "ul. Artura Grottgera 15", "city": "Gdańsk", "url": "https://carrefour-express.okazjum.pl/sklepy/gdansk/"},
{"business": "Carrefour Express", "opening_hours": "07:00-22:00", "address": "ul. Osiedlowa 2", "city": "Gdańsk", "url": "https://carrefour-express.okazjum.pl/sklepy/gdansk/"},
{"business": "Carrefour Express", "opening_hours": "06:00-23:00", "address": "ul. Bohaterów Monte Cassino 28", "city": "Sopot", "url": "https://carrefour-express.okazjum.pl/sklepy/gdansk/"},
{"business": "Carrefour Express", "opening_hours": "07:00-22:00", "address": "pl. Górnośląski 21", "city": "Gdynia", "url": "https://carrefour-express.okazjum.pl/sklepy/gdansk/"},
{"business": "Carrefour Express", "opening_hours": "07:00-22:00", "address": "ul. Starochwaszczyńska 29A/LU2", "city": "Gdynia", "url": "https://carrefour-express.okazjum.pl/sklepy/gdansk/"},
{"business": "Żabka", "opening_hours": "06:00-23:00", "address": "ul. Kartuska 195A", "city": "Gdańsk", "url": "https://zabka.okazjum.pl/sklepy/gdansk/"},
{"business": "Żabka", "opening_hours": "06:00-23:00", "address": "ul. Kartuska 35 i 37", "city": "Gdańsk", "url": "https://zabka.okazjum.pl/sklepy/gdansk/"},
{"business": "Żabka", "opening_hours": "06:00-23:00", "address": "ul. Kartuska 345B/U1", "city": "Gdańsk", "url": "https://zabka.okazjum.pl/sklepy/gdansk/"},
{"business": "Żabka", "opening_hours": "06:00-23:00", "address": "ul. Kartuska 358A", "city": "Gdańsk", "url": "https://zabka.okazjum.pl/sklepy/gdansk/"},
{"business": "Żabka", "opening_hours": "06:00-23:00", "address": "ul. Kartuska 246 Lok. UŻ2", "city": "Gdańsk", "url": "https://zabka.okazjum.pl/sklepy/gdansk/"},
{"business": "Żabka", "opening_hours": "06:00-23:00", "address": "ul. Konstantego Bergiela 2B/10", "city": "Gdańsk", "url": "https://zabka.okazjum.pl/sklepy/gdansk/"},
{"business": "Żabka", "opening_hours": "06:00-23:00", "address": "ul. Myśliwskie Wzgórze 18", "city": "Gdańsk", "url": "https://zabka.okazjum.pl/sklepy/gdansk/"},
{"business": "Żabka", "opening_hours": "06:00-23:00", "address": "ul. Franciszka Hynka 65", "city": "Gdańsk", "url": "https://zabka.okazjum.pl/sklepy/gdansk/"},
{"business": "Żabka", "opening_hours": "06:00-23:00", "address": "ul. Franciszka Hynka 18", "city": "Gdańsk", "url": "https://zabka.okazjum.pl/sklepy/gdansk/"},
{"business": "Żabka", "opening_hours": "06:00-23:00", "address": "ul. Mieczysława Karłowicza 86", "city": "Gdańsk", "url": "https://zabka.okazjum.pl/sklepy/gdansk/"},
{"business": "Żabka", "opening_hours": "06:00-23:00", "address": "ul. Hokejowa 23/U2", "city": "Gdańsk", "url": "https://zabka.okazjum.pl/sklepy/gdansk/"},
{"business": "Żabka", "opening_hours": "06:00-23:00", "address": "ul. Lawendowe Wzgórze 23/ U1 I U2", "city": "Gdańsk", "url": "https://zabka.okazjum.pl/sklepy/gdansk/"},
{"business": "Żabka", "opening_hours": "06:00-23:00", "address": "ul. Lawendowe Wzgórze 10", "city": "Gdańsk", "url": "https://zabka.okazjum.pl/sklepy/gdansk/"},
{"business": "Żabka", "opening_hours": "06:00-23:00", "address": "ul. Czerska 65", "city": "Gdańsk", "url": "https://zabka.okazjum.pl/sklepy/gdansk/"},
{"business": "Żabka", "opening_hours": "06:00-23:00", "address": "ul. Łucznicza 9/U1", "city": "Gdańsk", "url": "https://zabka.okazjum.pl/sklepy/gdansk/"},
{"business": "Żabka", "opening_hours": "06:00-23:00", "address": "ul. Jabłoniowa 18/28", "city": "Gdańsk", "url": "https://zabka.okazjum.pl/sklepy/gdansk/"},
{"business": "Żabka", "opening_hours": "06:00-23:00", "address": "ul. Ks. Bernarda Sychty 10A", "city": "Gdańsk", "url": "https://zabka.okazjum.pl/sklepy/gdansk/"},
{"business": "Carrefour Express", "opening_hours": "06:00-23:59", "address": "ul. Świętojańska 137", "city": "Gdynia", "url": "https://carrefour-express.okazjum.pl/sklepy/gdansk/"},
{"business": "Carrefour Express", "opening_hours": "06:00-23:00", "address": "ul. Partyzantów 46 lok. 13", "city": "Gdynia", "url": "https://carrefour-express.okazjum.pl/sklepy/gdansk/"},
{"business": "Żabka", "opening_hours": "06:00-23:00", "address": "al. Jana Pawła II 1C", "city": "Gdańsk", "url": "https://zabka.okazjum.pl/sklepy/gdansk/"},
{"business": "Żabka", "opening_hours": "06:00-23:00", "address": "al. Jana Pawła II 3A", "city": "Gdańsk", "url": "https://zabka.okazjum.pl/sklepy/gdansk/"},
{"business": "Żabka", "opening_hours": "06:00-23:00", "address": "al. Jana Pawła II 11 b", "city": "Gdańsk", "url": "https://zabka.okazjum.pl/sklepy/gdansk/"},
{"business": "Żabka", "opening_hours": "06:00-23:00", "address": "ul. Ignacego Krasickiego 9E", "city": "Gdańsk", "url": "https://zabka.okazjum.pl/sklepy/gdansk/"},
{"business": "Żabka", "opening_hours": "06:00-23:00", "address": "ul. Gdańska 16", "city": "Gdańsk", "url": "https://zabka.okazjum.pl/sklepy/gdansk/"},
{"business": "Żabka", "opening_hours": "06:00-23:00", "address": "ul. Fryderyka Chopina 33B", "city": "Gdańsk", "url": "https://zabka.okazjum.pl/sklepy/gdansk/"},
{"business": "Żabka", "opening_hours": "06:00-23:00", "address": "ul. Dworska 27", "city": "Gdańsk", "url": "https://zabka.okazjum.pl/sklepy/gdansk/"},
{"business": "Żabka", "opening_hours": "06:00-23:00", "address": "ul. Orzechowa 1", "city": "Gdańsk", "url": "https://zabka.okazjum.pl/sklepy/gdansk/"},
{"business": "Żabka", "opening_hours": "06:00-23:00", "address": "ul. Pilotów 9", "city": "Gdańsk", "url": "https://zabka.okazjum.pl/sklepy/gdansk/"},
{"business": "Żabka", "opening_hours": "06:00-23:00", "address": "ul. Głuszca 1", "city": "Gdańsk", "url": "https://zabka.okazjum.pl/sklepy/gdansk/"},
{"business": "Żabka", "opening_hours": "06:00-23:00", "address": "ul. Wielkopolska 70", "city": "Gdańsk", "url": "https://zabka.okazjum.pl/sklepy/gdansk/"},
{"business": "Żabka", "opening_hours": "06:00-23:00", "address": "ul. Dworska 14", "city": "Gdańsk", "url": "https://zabka.okazjum.pl/sklepy/gdansk/"},
{"business": "Żabka", "opening_hours": "06:00-23:00", "address": "ul. Startowa 2b", "city": "Gdańsk", "url": "https://zabka.okazjum.pl/sklepy/gdansk/"},
{"business": "Żabka", "opening_hours": "06:00-23:00", "address": "ul. Startowa 4A", "city": "Gdańsk", "url": "https://zabka.okazjum.pl/sklepy/gdansk/"},
{"business": "Żabka", "opening_hours": "06:00-23:00", "address": "ul. Janusza Meissnera 20", "city": "Gdańsk", "url": "https://zabka.okazjum.pl/sklepy/gdansk/"},
{"business": "Żabka", "opening_hours": "06:00-23:00", "address": "ul. Jabłoniowa 29A", "city": "Gdańsk", "url": "https://zabka.okazjum.pl/sklepy/gdansk/"},
{"business": "Żabka", "opening_hours": "06:00-23:00", "address": "ul. Olsztyńska 3C/11", "city": "Gdańsk", "url": "https://zabka.okazjum.pl/sklepy/gdansk/"},
{"business": "Żabka", "opening_hours": "06:00-23:00", "address": "ul. gen. Władysława Andersa 22", "city": "Gdańsk", "url": "https://zabka.okazjum.pl/sklepy/gdansk/"},
{"business": "Żabka", "opening_hours": "06:00-23:00", "address": "ul. Alfonsa Flisykowskiego 15", "city": "Gdańsk", "url": "https://zabka.okazjum.pl/sklepy/gdansk/"},
{"business": "Żabka", "opening_hours": "06:00-23:00", "address": "ul. Nasza 21", "city": "Borkowo", "url": "https://zabka.okazjum.pl/sklepy/gdansk/"},
{"business": "Żabka", "opening_hours": "06:00-23:00", "address": "ul. Konrada Guderskiego 2/III KL.B", "city": "Gdańsk", "url": "https://zabka.okazjum.pl/sklepy/gdansk/"},
{"business": "Żabka", "opening_hours": "06:00-23:00", "address": "ul. Konrada Guderskiego 66", "city": "Gdańsk", "url": "https://zabka.okazjum.pl/sklepy/gdansk/"},
{"business": "Żabka", "opening_hours": "06:00-23:00", "address": "ul. Jelitkowski Dwór 2/1", "city": "Gdańsk", "url": "https://zabka.okazjum.pl/sklepy/gdansk/"},
{"business": "Żabka", "opening_hours": "06:00-23:00", "address": "ul. Kasztanowa 15", "city": "Borkowo", "url": "https://zabka.okazjum.pl/sklepy/gdansk/"},
{"business": "Żabka", "opening_hours": "06:00-23:00", "address": "ul. Antoniego Abrahama 15B", "city": "Gdańsk", "url": "https://zabka.okazjum.pl/sklepy/gdansk/"},
{"business": "Żabka", "opening_hours": "06:00-23:00", "address": "al. Rzeczypospolitej 3", "city": "Gdańsk", "url": "https://zabka.okazjum.pl/sklepy/gdansk/"},
{"business": "Żabka", "opening_hours": "06:00-23:00", "address": "al. Rzeczypospolitej 4D", "city": "Gdańsk", "url": "https://zabka.okazjum.pl/sklepy/gdansk/"},
{"business": "Żabka", "opening_hours": "06:00-23:00", "address": "ul. Potęgowska 12/49", "city": "Gdańsk", "url": "https://zabka.okazjum.pl/sklepy/gdansk/"},
{"business": "Żabka", "opening_hours": "06:00-23:00", "address": "Współczesna 1R", "city": "Borkowo", "url": "https://zabka.okazjum.pl/sklepy/gdansk/"},
{"business": "Żabka", "opening_hours": "06:00-23:00", "address": "ul. Grudziądzka 10 Lok. 121", "city": "Gdańsk", "url": "https://zabka.okazjum.pl/sklepy/gdansk/"},
{"business": "Żabka", "opening_hours": "06:00-23:00", "address": "ul. Gdańska 2", "city": "Gdańsk", "url": "https://zabka.okazjum.pl/sklepy/gdansk/"},
{"business": "Żabka", "opening_hours": "06:00-23:00", "address": "ul. Zeusa 82/U1 U2", "city": "Kowale", "url": "https://zabka.okazjum.pl/sklepy/gdansk/"},
{"business": "Żabka", "opening_hours": "06:00-23:00", "address": "ul. Zeusa 14", "city": "Kowale", "url": "https://zabka.okazjum.pl/sklepy/gdansk/"},
{"business": "Żabka", "opening_hours": "06:00-23:00", "address": "ul. Prezydenta Lecha Kaczyńskiego 31", "city": "Gdańsk", "url": "https://zabka.okazjum.pl/sklepy/gdansk/"},
{"business": "Netto", "opening_hours": "07:00-22:00", "address": "ul. Rajska 10", "city": "Gdańsk", "url": "https://netto.okazjum.pl/sklepy/gdansk/"},
{"business": "Netto", "opening_hours": "06:00-22:00", "address": "ul. Warszawska 19", "city": "Gdańsk", "url": "https://netto.okazjum.pl/sklepy/gdansk/"},
{"business": "Netto", "opening_hours": "06:00-22:00", "address": "ul. Świętokrzyska 50", "city": "Gdańsk", "url": "https://netto.okazjum.pl/sklepy/gdansk/"},
{"business": "Netto", "opening_hours": "06:00-22:00", "address": "ul. Franciszka Rakoczego 13", "city": "Gdańsk", "url": "https://netto.okazjum.pl/sklepy/gdansk/"},
{"business": "Netto", "opening_hours": "06:00-22:00", "address": "ul. Opolska 3", "city": "Gdańsk", "url": "https://netto.okazjum.pl/sklepy/gdansk/"},
{"business": "Netto", "opening_hours": "06:00-22:00", "address": "ul. Obrońców Wybrzeża 21", "city": "Gdańsk", "url": "https://netto.okazjum.pl/sklepy/gdansk/"},
{"business": "Netto", "opening_hours": "06:00-21:00", "address": "ul. Objazdowa 5A", "city": "Straszyn", "url": "https://netto.okazjum.pl/sklepy/gdansk/"},
{"business": "Netto", "opening_hours": "06:00-22:00", "address": "ul. Ignacego Domeyki 1", "city": "Pruszcz Gdański", "url": "https://netto.okazjum.pl/sklepy/gdansk/"},
{"business": "Netto", "opening_hours": "06:00-22:00", "address": "ul. Kalinowa 3", "city": "Gdańsk", "url": "https://netto.okazjum.pl/sklepy/gdansk/"},
{"business": "Żabka", "opening_hours": "06:00-23:00", "address": "ul. Tysiąclecia 24/6", "city": "Gdańsk", "url": "https://zabka.okazjum.pl/sklepy/gdansk/"},
{"business": "Żabka", "opening_hours": "06:00-23:00", "address": "ul. Obrońców Wybrzeża 10B", "city": "Gdańsk", "url": "https://zabka.okazjum.pl/sklepy/gdansk/"},
{"business": "Żabka", "opening_hours": "06:00-23:00", "address": "ul. Stężycka 64 lok. 1 i 2", "city": "Gdańsk", "url": "https://zabka.okazjum.pl/sklepy/gdansk/"},
{"business": "Żabka", "opening_hours": "06:00-23:00", "address": "ul. Obrońców Wybrzeża 3a", "city": "Gdańsk", "url": "https://zabka.okazjum.pl/sklepy/gdansk/"},
{"business": "Żabka", "opening_hours": "06:00-23:00", "address": "ul. Obrońców Wybrzeża 11/3", "city": "Gdańsk", "url": "https://zabka.okazjum.pl/sklepy/gdansk/"},
{"business": "Żabka", "opening_hours": "06:00-23:00", "address": "ul. Obrońców Wybrzeża 2", "city": "Gdańsk", "url": "https://zabka.okazjum.pl/sklepy/gdansk/"},
{"business": "Żabka", "opening_hours": "06:00-23:00", "address": "ul. Obrońców Wybrzeża 27", "city": "Gdańsk", "url": "https://zabka.okazjum.pl/sklepy/gdansk/"},
{"business": "Żabka", "opening_hours": "06:00-23:00", "address": "ul. Kołobrzeska 34", "city": "Gdańsk", "url": "https://zabka.okazjum.pl/sklepy/gdansk/"},
{"business": "Żabka", "opening_hours": "06:00-23:00", "address": "ul. Kołobrzeska 5", "city": "Gdańsk", "url": "https://zabka.okazjum.pl/sklepy/gdansk/"},
{"business": "Żabka", "opening_hours": "06:00-23:00", "address": "ul. Kołobrzeska 59A", "city": "Gdańsk", "url": "https://zabka.okazjum.pl/sklepy/gdansk/"},
{"business": "Żabka", "opening_hours": "06:00-23:00", "address": "ul. Kołobrzeska 21A", "city": "Gdańsk", "url": "https://zabka.okazjum.pl/sklepy/gdansk/"},
{"business": "Żabka", "opening_hours": "06:00-23:00", "address": "ul. Śląska 12", "city": "Gdańsk", "url": "https://zabka.okazjum.pl/sklepy/gdansk/"},
{"business": "Auchan", "opening_hours": "07:00-21:00", "address": "ul. Kołobrzeska 32", "city": "Gdańsk", "url": "https://auchan.okazjum.pl/sklepy/gdansk/"},
{"business": "Auchan", "opening_hours": "07:00-21:00", "address": "ul. Szczęśliwa 3", "city": "Gdańsk", "url": "https://auchan.okazjum.pl/sklepy/gdansk/"},
{"business": "Auchan", "opening_hours": "07:00-21:00", "address": "ul. Spacerowa 48", "city": "Gdańsk", "url": "https://auchan.okazjum.pl/sklepy/gdansk/"},
{"business": "Auchan", "opening_hours": "07:00-21:00", "address": "ul. Kazimierza Górskiego 2", "city": "Gdynia", "url": "https://auchan.okazjum.pl/sklepy/gdansk/"},
{"business": "Żabka", "opening_hours": "06:00-23:00", "address": "ul. Śląska 39A", "city": "Gdańsk", "url": "https://zabka.okazjum.pl/sklepy/gdansk/"},
{"business": "Żabka", "opening_hours": "06:00-23:00", "address": "ul. Krzysztofa Komedy 32", "city": "Gdańsk", "url": "https://zabka.okazjum.pl/sklepy/gdansk/"},
{"business": "Żabka", "opening_hours": "06:00-23:00", "address": "ul. Krzysztofa Komedy 2", "city": "Gdańsk", "url": "https://zabka.okazjum.pl/sklepy/gdansk/"},
{"business": "Żabka", "opening_hours": "06:00-23:00", "address": "ul. Przytulna 7", "city": "Gdańsk", "url": "https://zabka.okazjum.pl/sklepy/gdansk/"},
{"business": "Żabka", "opening_hours": "06:00-23:00", "address": "ul. Wita Stwosza 46", "city": "Gdańsk", "url": "https://zabka.okazjum.pl/sklepy/gdansk/"},
{"business": "Żabka", "opening_hours": "06:00-23:00", "address": "ul. Gen. Bora-Komorowskiego 39 i 38", "city": "Gdańsk", "url": "https://zabka.okazjum.pl/sklepy/gdansk/"},
{"business": "Żabka", "opening_hours": "06:00-23:00", "address": "ul. Prezydenta Lecha Kaczyńskiego 18", "city": "Gdańsk", "url": "https://zabka.okazjum.pl/sklepy/gdansk/"},
{"business": "Żabka", "opening_hours": "06:00-23:00", "address": "ul. Szczecińska 2/1", "city": "Gdańsk", "url": "https://zabka.okazjum.pl/sklepy/gdansk/"},
{"business": "Żabka", "opening_hours": "06:00-23:00", "address": "ul. Szczecińska 33", "city": "Gdańsk", "url": "https://zabka.okazjum.pl/sklepy/gdansk/"},
{"business": "Żabka", "opening_hours": "06:00-23:00", "address": "ul. Chłopska 24A", "city": "Gdańsk", "url": "https://zabka.okazjum.pl/sklepy/gdansk/"},
{"business": "Żabka", "opening_hours": "06:00-23:00", "address": "ul. Jagiellońska 8A", "city": "Gdańsk", "url": "https://zabka.okazjum.pl/sklepy/gdansk/"},
{"business": "Żabka", "opening_hours": "06:00-23:00", "address": "ul. Polanki 31", "city": "Gdańsk", "url": "https://zabka.okazjum.pl/sklepy/gdansk/"},
{"business": "Żabka", "opening_hours": "06:00-23:00", "address": "al. Grunwaldzka 75", "city": "Gdańsk", "url": "https://zabka.okazjum.pl/sklepy/gdansk/"},
{"business": "Żabka", "opening_hours": "06:00-23:00", "address": "al. Grunwaldzka 92/98 .", "city": "Gdańsk", "url": "https://zabka.okazjum.pl/sklepy/gdansk/"},
{"business": "Żabka", "opening_hours": "06:00-23:00", "address": "al. Grunwaldzka 156", "city": "Gdańsk", "url": "https://zabka.okazjum.pl/sklepy/gdansk/"},
{"business": "Żabka", "opening_hours": "06:00-23:00", "address": "al. Grunwaldzka 409", "city": "Gdańsk", "url": "https://zabka.okazjum.pl/sklepy/gdansk/"},
{"business": "Żabka", "opening_hours": "06:00-23:00", "address": "al. Grunwaldzka 472", "city": "Gdańsk", "url": "https://zabka.okazjum.pl/sklepy/gdansk/"},
{"business": "Żabka", "opening_hours": "06:00-23:00", "address": "al. Grunwaldzka 347", "city": "Gdańsk", "url": "https://zabka.okazjum.pl/sklepy/gdansk/"},
{"business": "Żabka", "opening_hours": "06:00-23:00", "address": "al. Grunwaldzka 74", "city": "Gdańsk", "url": "https://zabka.okazjum.pl/sklepy/gdansk/"},
{"business": "Żabka", "opening_hours": "06:00-23:00", "address": "al. Grunwaldzka 489", "city": "Gdańsk", "url": "https://zabka.okazjum.pl/sklepy/gdansk/"},
{"business": "Żabka", "opening_hours": "06:00-23:00", "address": "al. Grunwaldzka 415", "city": "Gdańsk", "url": "https://zabka.okazjum.pl/sklepy/gdansk/"},
{"business": "Żabka", "opening_hours": "06:00-23:00", "address": "al. Grunwaldzka 42", "city": "Gdańsk", "url": "https://zabka.okazjum.pl/sklepy/gdansk/"},
{"business": "Żabka", "opening_hours": "06:00-23:00", "address": "al. Grunwaldzka 12", "city": "Gdańsk", "url": "https://zabka.okazjum.pl/sklepy/gdansk/"},
{"business": "Żabka", "opening_hours": "06:00-23:00", "address": "ul. Piastowska 82", "city": "Gdańsk", "url": "https://zabka.okazjum.pl/sklepy/gdansk/"},
{"business": "Żabka", "opening_hours": "06:00-23:00", "address": "ul. Wita Stwosza 13", "city": "Gdańsk", "url": "https://zabka.okazjum.pl/sklepy/gdansk/"},
{"business": "Żabka", "opening_hours": "06:00-23:00", "address": "ul. Bolesława Krzywoustego 13A", "city": "Gdańsk", "url": "https://zabka.okazjum.pl/sklepy/gdansk/"},
{"business": "Żabka", "opening_hours": "06:00-23:00", "address": "ul. Piastowska 206", "city": "Gdańsk", "url": "https://zabka.okazjum.pl/sklepy/gdansk/"},
{"business": "Żabka", "opening_hours": "06:00-23:00", "address": "ul. Piastowska 97", "city": "Gdańsk", "url": "https://zabka.okazjum.pl/sklepy/gdansk/"},
{"business": "Żabka", "opening_hours": "06:00-23:00", "address": "ul. Leona Droszyńskiego 32A", "city": "Gdańsk", "url": "https://zabka.okazjum.pl/sklepy/gdansk/"},
{"business": "Żabka", "opening_hours": "06:00-23:00", "address": "ul. Opata Jacka Rybińskiego 5", "city": "Gdańsk", "url": "https://zabka.okazjum.pl/sklepy/gdansk/"},
{"business": "Aldi", "opening_hours": "07:00-22:00", "address": "ul. Rajska 8", "city": "Gdańsk", "url": "https://aldi.okazjum.pl/sklepy/gdansk/"},
{"business": "Aldi", "opening_hours": "07:00-22:00", "address": "ul. Zygmunta Noskowskiego 1", "city": "Gdańsk", "url": "https://aldi.okazjum.pl/sklepy/gdansk/"},
{"business": "Aldi", "opening_hours": "07:00-22:00", "address": "ul. Piecewska 29", "city": "Gdańsk", "url": "https://aldi.okazjum.pl/sklepy/gdansk/"},
{"business": "Aldi", "opening_hours": "07:00-22:00", "address": "ul. Limbowa 1", "city": "Gdańsk", "url": "https://aldi.okazjum.pl/sklepy/gdansk/"},
{"business": "Aldi", "opening_hours": "07:00-22:00", "address": "ul. Władysława Czermińskiego 4", "city": "Gdańsk", "url": "https://aldi.okazjum.pl/sklepy/gdansk/"},
{"business": "Aldi", "opening_hours": "06:00-22:00", "address": "ul. Kartuska 478", "city": "Gdańsk", "url": "https://aldi.okazjum.pl/sklepy/gdansk/"},
{"business": "Aldi", "opening_hours": "06:00-22:00", "address": "ul. Gen. Władysława Sikorskiego 8", "city": "Sopot", "url": "https://aldi.okazjum.pl/sklepy/gdansk/"},
{"business": "Aldi", "opening_hours": "06:00-22:00", "address": "ul. Raatza 2", "city": "Gdańsk", "url": "https://aldi.okazjum.pl/sklepy/gdansk/"},
{"business": "Żabka", "opening_hours": "06:00-23:00", "address": "ul. Stefana Rogozińskiego 6/S1", "city": "Pruszcz Gdański", "url": "https://zabka.okazjum.pl/sklepy/gdansk/"},
{"business": "Żabka", "opening_hours": "06:00-23:00", "address": "ul. Cytrowa 2A/1", "city": "Gdańsk", "url": "https://zabka.okazjum.pl/sklepy/gdansk/"},
{"business": "Żabka", "opening_hours": "06:00-23:00", "address": "ul. Bajki 2", "city": "Rotmanka", "url": "https://zabka.okazjum.pl/sklepy/gdansk/"},
{"business": "Żabka", "opening_hours": "06:00-23:00", "address": "ul. Kalinowa 11/5", "city": "Gdańsk", "url": "https://zabka.okazjum.pl/sklepy/gdansk/"},
{"business": "Żabka", "opening_hours": "06:00-23:00", "address": "ul. Stary Rynek Oliwski 6", "city": "Gdańsk", "url": "https://zabka.okazjum.pl/sklepy/gdansk/"},
{"business": "Żabka", "opening_hours": "06:00-23:00", "address": "ul. Prof. Mariana Raciborskiego 1C", "city": "Gdańsk", "url": "https://zabka.okazjum.pl/sklepy/gdansk/"},
{"business": "Żabka", "opening_hours": "06:00-23:00", "address": "ul. Gospody 3A", "city": "Gdańsk", "url": "https://zabka.okazjum.pl/sklepy/gdansk/"},
{"business": "Żabka", "opening_hours": "06:00-23:00", "address": "ul. Storczykowa 4/1", "city": "Gdańsk", "url": "https://zabka.okazjum.pl/sklepy/gdansk/"},
{"business": "Żabka", "opening_hours": "06:00-23:00", "address": "ul. Henryka Arctowskiego 2", "city": "Pruszcz Gdański", "url": "https://zabka.okazjum.pl/sklepy/gdansk/"},
{"business": "Żabka", "opening_hours": "06:00-23:00", "address": "ul. Mikołaja Kopernika 39 .", "city": "Pruszcz Gdański", "url": "https://zabka.okazjum.pl/sklepy/gdansk/"},
{"business": "Żabka", "opening_hours": "06:00-23:00", "address": "ul. Antoniego Dobrowolskiego 8", "city": "Pruszcz Gdański", "url": "https://zabka.okazjum.pl/sklepy/gdansk/"},
{"business": "Żabka", "opening_hours": "06:00-23:00", "address": "ul. Jana Kasprowicza 52/2", "city": "Pruszcz Gdański", "url": "https://zabka.okazjum.pl/sklepy/gdansk/"},
{"business": "Żabka", "opening_hours": "06:00-23:00", "address": "ul. Józefa Czyżewskiego 6", "city": "Gdańsk", "url": "https://zabka.okazjum.pl/sklepy/gdansk/"},
{"business": "Żabka", "opening_hours": "06:00-23:00", "address": "ul. Subisława 27C/5", "city": "Gdańsk", "url": "https://zabka.okazjum.pl/sklepy/gdansk/"},
{"business": "Żabka", "opening_hours": "06:00-23:00", "address": "ul. Jelitkowska 73", "city": "Gdańsk", "url": "https://zabka.okazjum.pl/sklepy/gdansk/"},
{"business": "Żabka", "opening_hours": "06:00-23:00", "address": "ul. Gospody 19 A/B", "city": "Gdańsk", "url": "https://zabka.okazjum.pl/sklepy/gdansk/"},
{"business": "Żabka", "opening_hours": "06:00-23:00", "address": "ul. Bitwy Oliwskiej 21E", "city": "Gdańsk", "url": "https://zabka.okazjum.pl/sklepy/gdansk/"},
{"business": "Żabka", "opening_hours": "06:00-23:00", "address": "ul. Obrońców Pokoju 32", "city": "Pruszcz Gdański", "url": "https://zabka.okazjum.pl/sklepy/gdansk/"},
{"business": "Żabka", "opening_hours": "06:00-23:00", "address": "pl. Wyzwolenia 1", "city": "Pruszcz Gdański", "url": "https://zabka.okazjum.pl/sklepy/gdansk/"},
{"business": "Żabka", "opening_hours": "06:00-23:00", "address": "ul. Żwirki i Wigury 1a", "city": "Pruszcz Gdański", "url": "https://zabka.okazjum.pl/sklepy/gdansk/"},
{"business": "Żabka", "opening_hours": "06:00-23:00", "address": "ul. Wojciecha Kossaka 2", "city": "Pruszcz Gdański", "url": "https://zabka.okazjum.pl/sklepy/gdansk/"},
{"business": "Żabka", "opening_hours": "06:00-23:00", "address": "ul. Wojska Polskiego 18", "city": "Pruszcz Gdański", "url": "https://zabka.okazjum.pl/sklepy/gdansk/"},
{"business": "Żabka", "opening_hours": "06:00-23:00", "address": "ul. Andrzeja Frycza-Modrzewskiego 55", "city": "Pruszcz Gdański", "url": "https://zabka.okazjum.pl/sklepy/gdansk/"},
{"business": "Żabka", "opening_hours": "06:00-23:00", "address": "ul. Obrońców Wybrzeża 14A", "city": "Pruszcz Gdański", "url": "https://zabka.okazjum.pl/sklepy/gdansk/"},
{"business": "Żabka", "opening_hours": "06:00-23:00", "address": "ul. Urocza 17", "city": "Juszkowo", "url": "https://zabka.okazjum.pl/sklepy/gdansk/"},
{"business": "Żabka", "opening_hours": "06:00-23:00", "address": "ul. Nowatorów 9A", "city": "Gdańsk", "url": "https://zabka.okazjum.pl/sklepy/gdansk/"},
{"business": "Żabka", "opening_hours": "06:00-23:00", "address": "ul. Nowatorów 23", "city": "Gdańsk", "url": "https://zabka.okazjum.pl/sklepy/gdansk/"},
{"business": "Żabka", "opening_hours": "06:00-23:00", "address": "ul. Nowatorów 3", "city": "Gdańsk", "url": "https://zabka.okazjum.pl/sklepy/gdansk/"},
{"business": "Żabka", "opening_hours": "06:00-23:00", "address": "ul. Raduńska 62a", "city": "Juszkowo", "url": "https://zabka.okazjum.pl/sklepy/gdansk/"},
{"business": "Żabka", "opening_hours": "06:00-23:00", "address": "ul. Feliksa Nowowiejskiego 1", "city": "Pruszcz Gdański", "url": "https://zabka.okazjum.pl/sklepy/gdansk/"},
{"business": "Żabka", "opening_hours": "06:00-23:00", "address": "ul. Turystyczna 6", "city": "Gdańsk", "url": "https://zabka.okazjum.pl/sklepy/gdansk/"},
{"business": "Żabka", "opening_hours": "06:00-23:00", "address": "ul. 3 Maja 9", "city": "Sopot", "url": "https://zabka.okazjum.pl/sklepy/gdansk/"},
{"business": "Żabka", "opening_hours": "06:00-23:00", "address": "al. Niepodległości 712", "city": "Sopot", "url": "https://zabka.okazjum.pl/sklepy/gdansk/"},
{"business": "Żabka", "opening_hours": "06:00-23:00", "address": "ul. Tęczowa 2", "city": "Gdańsk", "url": "https://zabka.okazjum.pl/sklepy/gdansk/"},
{"business": "Żabka", "opening_hours": "06:00-23:00", "address": "ul. Kazimierza Wielkiego 7", "city": "Sopot", "url": "https://zabka.okazjum.pl/sklepy/gdansk/"},
{"business": "Żabka", "opening_hours": "06:00-23:00", "address": "ul. Grunwaldzka 59", "city": "Sopot", "url": "https://zabka.okazjum.pl/sklepy/gdansk/"},
{"business": "Żabka", "opening_hours": "06:00-23:00", "address": "ul. Kazimierza Wielkiego 28", "city": "Gdańsk", "url": "https://zabka.okazjum.pl/sklepy/gdansk/"},
{"business": "Żabka", "opening_hours": "06:00-23:00", "address": "ul. Armii Krajowej 60A", "city": "Sopot", "url": "https://zabka.okazjum.pl/sklepy/gdansk/"},
{"business": "Żabka", "opening_hours": "06:00-23:00", "address": "ul. Fryderyka Chopina 26", "city": "Sopot", "url": "https://zabka.okazjum.pl/sklepy/gdansk/"},
{"business": "Żabka", "opening_hours": "06:00-23:00", "address": "ul. Marynarzy 3", "city": "Sopot", "url": "https://zabka.okazjum.pl/sklepy/gdansk/"},
{"business": "Żabka", "opening_hours": "06:00-23:00", "address": "ul. Fryderyka Chopina 46", "city": "Sopot", "url": "https://zabka.okazjum.pl/sklepy/gdansk/"},
{"business": "Żabka", "opening_hours": "06:00-23:00", "address": "ul. Tadeusza Kościuszki 5/2", "city": "Sopot", "url": "https://zabka.okazjum.pl/sklepy/gdansk/"},
{"business": "Żabka", "opening_hours": "06:00-23:00", "address": "al. Niepodległości 771", "city": "Sopot", "url": "https://zabka.okazjum.pl/sklepy/gdansk/"},
{"business": "Żabka", "opening_hours": "06:00-23:00", "address": "al. Niepodległości 675", "city": "Sopot", "url": "https://zabka.okazjum.pl/sklepy/gdansk/"},
{"business": "Żabka", "opening_hours": "06:00-23:00", "address": "ul. Radarowa 30", "city": "Gdańsk", "url": "https://zabka.okazjum.pl/sklepy/gdansk/"},
{"business": "Żabka", "opening_hours": "06:00-23:00", "address": "ul. Antoniego Abrahama 34", "city": "Sopot", "url": "https://zabka.okazjum.pl/sklepy/gdansk/"},
{"business": "Żabka", "opening_hours": "06:00-23:00", "address": "ul. Bohaterów Monte Cassino 60", "city": "Sopot", "url": "https://zabka.okazjum.pl/sklepy/gdansk/"},
{"business": "Żabka", "opening_hours": "06:00-23:00", "address": "ul. Bohaterów Monte Cassino 21", "city": "Sopot", "url": "https://zabka.okazjum.pl/sklepy/gdansk/"},
{"business": "Żabka", "opening_hours": "06:00-23:00", "address": "ul. Bohaterów Monte Cassino 5", "city": "Sopot", "url": "https://zabka.okazjum.pl/sklepy/gdansk/"},
{"business": "Żabka", "opening_hours": "06:00-23:00", "address": "ul. Jana Jerzego Haffnera 24", "city": "Sopot", "url": "https://zabka.okazjum.pl/sklepy/gdansk/"},
{"business": "Żabka", "opening_hours": "06:00-23:00", "address": "ul. Armii Krajowej 133", "city": "Sopot", "url": "https://zabka.okazjum.pl/sklepy/gdansk/"},
{"business": "Żabka", "opening_hours": "06:00-23:00", "address": "ul. Długa 101A", "city": "Cieplewo", "url": "https://zabka.okazjum.pl/sklepy/gdansk/"},
{"business": "Żabka", "opening_hours": "06:00-23:00", "address": "ul. Jacka Malczewskiego 1-3", "city": "Sopot", "url": "https://zabka.okazjum.pl/sklepy/gdansk/"},
{"business": "Żabka", "opening_hours": "06:00-23:00", "address": "ul. 23 Marca 77C", "city": "Sopot", "url": "https://zabka.okazjum.pl/sklepy/gdansk/"},
{"business": "Żabka", "opening_hours": "06:00-23:00", "address": "ul. Józefa Kraszewskiego 26", "city": "Sopot", "url": "https://zabka.okazjum.pl/sklepy/gdansk/"},
{"business": "Żabka", "opening_hours": "06:00-23:00", "address": "ul. Wejherowska 31", "city": "Sopot", "url": "https://zabka.okazjum.pl/sklepy/gdansk/"},
{"business": "Żabka", "opening_hours": "06:00-23:00", "address": "ul. Orfeusza 2A", "city": "Gdańsk", "url": "https://zabka.okazjum.pl/sklepy/gdansk/"},
{"business": "Żabka", "opening_hours": "06:00-23:00", "address": "ul. Orfeusza 40", "city": "Gdańsk", "url": "https://zabka.okazjum.pl/sklepy/gdansk/"},
{"business": "Żabka", "opening_hours": "06:00-23:00", "address": "ul. Wodnika 46", "city": "Gdańsk", "url": "https://zabka.okazjum.pl/sklepy/gdansk/"},
{"business": "Żabka", "opening_hours": "06:00-23:00", "address": "ul. Spacerowa 18", "city": "Łęgowo", "url": "https://zabka.okazjum.pl/sklepy/gdansk/"},
{"business": "Żabka", "opening_hours": "06:00-23:00", "address": "ul. Oskara Kolberga 9", "city": "Sopot", "url": "https://zabka.okazjum.pl/sklepy/gdansk/"},
{"business": "Żabka", "opening_hours": "06:00-23:00", "address": "ul. Koziorożca 2", "city": "Gdańsk", "url": "https://zabka.okazjum.pl/sklepy/gdansk/"},
{"business": "Żabka", "opening_hours": "06:00-23:00", "address": "ul. Koziorożca 33", "city": "Gdańsk", "url": "https://zabka.okazjum.pl/sklepy/gdansk/"},
{"business": "Żabka", "opening_hours": "06:00-23:00", "address": "ul. Staromłyńska 16", "city": "Kolbudy", "url": "https://zabka.okazjum.pl/sklepy/gdansk/"},
{"business": "Żabka", "opening_hours": "06:00-23:00", "address": "ul. Nowy Świat 1c .", "city": "Gdańsk", "url": "https://zabka.okazjum.pl/sklepy/gdansk/"},
{"business": "Żabka", "opening_hours": "06:00-23:00", "address": "ul. Zeusa 54", "city": "Gdańsk", "url": "https://zabka.okazjum.pl/sklepy/gdansk/"},
{"business": "Żabka", "opening_hours": "06:00-23:00", "address": "ul. Kielnieńska 99", "city": "Gdańsk", "url": "https://zabka.okazjum.pl/sklepy/gdansk/"},
{"business": "Żabka", "opening_hours": "06:00-23:00", "address": "al. Zwycięstwa 239", "city": "Gdynia", "url": "https://zabka.okazjum.pl/sklepy/gdansk/"},
{"business": "Żabka", "opening_hours": "06:00-23:00", "address": "ul. Parkowa 6/1A", "city": "Gdynia", "url": "https://zabka.okazjum.pl/sklepy/gdansk/"},
{"business": "Żabka", "opening_hours": "06:00-23:00", "address": "ul. Nowodworcowa 20", "city": "Gdynia", "url": "https://zabka.okazjum.pl/sklepy/gdansk/"},
{"business": "Żabka", "opening_hours": "06:00-23:00", "address": "ul. Olgierda 71a", "city": "Gdynia", "url": "https://zabka.okazjum.pl/sklepy/gdansk/"},
{"business": "Żabka", "opening_hours": "06:00-23:00", "address": "pl. Górnośląski 1", "city": "Gdynia", "url": "https://zabka.okazjum.pl/sklepy/gdansk/"},
{"business": "Żabka", "opening_hours": "06:00-23:00", "address": "ul. Buraczana 25", "city": "Gdynia", "url": "https://zabka.okazjum.pl/sklepy/gdansk/"},
{"business": "Żabka", "opening_hours": "06:00-23:00", "address": "ul. Źródło Marii 4", "city": "Gdynia", "url": "https://zabka.okazjum.pl/sklepy/gdansk/"},
{"business": "Żabka", "opening_hours": "06:00-23:00", "address": "ul. Bieszczadzka 6", "city": "Gdynia", "url": "https://zabka.okazjum.pl/sklepy/gdansk/"},
{"business": "Żabka", "opening_hours": "06:00-23:00", "address": "ul. Borowiecka 3", "city": "Banino", "url": "https://zabka.okazjum.pl/sklepy/gdansk/"},
{"business": "Żabka", "opening_hours": "06:00-23:00", "address": "ul. Myśliwska 27", "city": "Gdynia", "url": "https://zabka.okazjum.pl/sklepy/gdansk/"},
{"business": "Żabka", "opening_hours": "06:00-23:00", "address": "ul. Powstania Wielkopolskiego 95", "city": "Gdynia", "url": "https://zabka.okazjum.pl/sklepy/gdansk/"},
{"business": "Żabka", "opening_hours": "06:00-23:00", "address": "ul. Chwaszczyńska 21", "city": "Gdynia", "url": "https://zabka.okazjum.pl/sklepy/gdansk/"},
{"business": "Żabka", "opening_hours": "06:00-23:00", "address": "ul. Legionów 112/7", "city": "Gdynia", "url": "https://zabka.okazjum.pl/sklepy/gdansk/"},
{"business": "Żabka", "opening_hours": "06:00-23:00", "address": "ul. Dragonów 1A", "city": "Gdynia", "url": "https://zabka.okazjum.pl/sklepy/gdansk/"},
{"business": "Żabka", "opening_hours": "06:00-23:00", "address": "ul. Legionów 69", "city": "Gdynia", "url": "https://zabka.okazjum.pl/sklepy/gdansk/"},
{"business": "Żabka", "opening_hours": "06:00-23:00", "address": "ul. Bohaterów Starówki Warszawskiej 3", "city": "Gdynia", "url": "https://zabka.okazjum.pl/sklepy/gdansk/"},
{"business": "Żabka", "opening_hours": "06:00-23:00", "address": "ul. Oliwska 77", "city": "Chwaszczyno", "url": "https://zabka.okazjum.pl/sklepy/gdansk/"},
{"business": "Żabka", "opening_hours": "06:00-23:00", "address": "ul. Łużycka 8A", "city": "Gdynia", "url": "https://zabka.okazjum.pl/sklepy/gdansk/"},
{"business": "Żabka", "opening_hours": "06:00-23:00", "address": "ul. Armii Krajowej 24", "city": "Żukowo", "url": "https://zabka.okazjum.pl/sklepy/gdansk/"},
{"business": "Żabka", "opening_hours": "06:00-23:00", "address": "ul. Rdestowa 10/3A", "city": "Gdynia", "url": "https://zabka.okazjum.pl/sklepy/gdansk/"},
{"business": "Żabka", "opening_hours": "06:00-23:00", "address": "ul. Legionów 115A/L1", "city": "Gdynia", "url": "https://zabka.okazjum.pl/sklepy/gdansk/"},
{"business": "Żabka", "opening_hours": "06:00-23:00", "address": "ul. Legionów 116", "city": "Gdynia", "url": "https://zabka.okazjum.pl/sklepy/gdansk/"},
{"business": "Żabka", "opening_hours": "06:00-23:00", "address": "ul. Paprykowa 12A", "city": "Gdynia", "url": "https://zabka.okazjum.pl/sklepy/gdansk/"},
{"business": "Żabka", "opening_hours": "06:00-23:00", "address": "ul. Legionów 92", "city": "Gdynia", "url": "https://zabka.okazjum.pl/sklepy/gdansk/"},
{"business": "Żabka", "opening_hours": "06:00-23:00", "address": "ul. II Morskiego Pułku Strzelców 4a", "city": "Gdynia", "url": "https://zabka.okazjum.pl/sklepy/gdansk/"},
{"business": "Żabka", "opening_hours": "06:00-23:00", "address": "ul. Gdyńska 50", "city": "Chwaszczyno", "url": "https://zabka.okazjum.pl/sklepy/gdansk/"},
{"business": "Żabka", "opening_hours": "06:00-23:00", "address": "ul. Miętowa 3", "city": "Gdynia", "url": "https://zabka.okazjum.pl/sklepy/gdansk/"},
{"business": "Żabka", "opening_hours": "06:00-23:00", "address": "ul. Kazimierza Górskiego 1", "city": "Gdynia", "url": "https://zabka.okazjum.pl/sklepy/gdansk/"},
{"business": "Żabka", "opening_hours": "06:00-23:00", "address": "ul. Wincentego Pola 15", "city": "Gdynia", "url": "https://zabka.okazjum.pl/sklepy/gdansk/"},
{"business": "Żabka", "opening_hours": "06:00-23:00", "address": "ul. Mikołaja Kopernika 15a", "city": "Gdynia", "url": "https://zabka.okazjum.pl/sklepy/gdansk/"},
{"business": "Żabka", "opening_hours": "06:00-23:00", "address": "ul. Gdyńska 24A", "city": "Żukowo", "url": "https://zabka.okazjum.pl/sklepy/gdansk/"},
{"business": "Żabka", "opening_hours": "06:00-23:00", "address": "ul. Bosmańska 1", "city": "Dąbrowa", "url": "https://zabka.okazjum.pl/sklepy/gdansk/"},
{"business": "Żabka", "opening_hours": "06:00-23:00", "address": "ul. Kornela Ujejskiego 29-35", "city": "Gdynia", "url": "https://zabka.okazjum.pl/sklepy/gdansk/"},
{"business": "Żabka", "opening_hours": "06:00-23:00", "address": "ul. Tymiankowa 18", "city": "Gdynia", "url": "https://zabka.okazjum.pl/sklepy/gdansk/"},
{"business": "Żabka", "opening_hours": "06:00-23:00", "address": "ul. Konwaliowa 16", "city": "Gdynia", "url": "https://zabka.okazjum.pl/sklepy/gdansk/"},
{"business": "Żabka", "opening_hours": "06:00-23:00", "address": "ul. Hodowlana 36", "city": "Gdynia", "url": "https://zabka.okazjum.pl/sklepy/gdansk/"},
{"business": "Żabka", "opening_hours": "06:00-23:00", "address": "ul. Książąt Pomorskich 2f", "city": "Żukowo", "url": "https://zabka.okazjum.pl/sklepy/gdansk/"},
{"business": "Żabka", "opening_hours": "06:00-23:00", "address": "ul. Ignacego Krasickiego 10", "city": "Gdynia", "url": "https://zabka.okazjum.pl/sklepy/gdansk/"},
{"business": "Żabka", "opening_hours": "06:00-23:00", "address": "ul. Ignacego Krasickiego 45", "city": "Gdynia", "url": "https://zabka.okazjum.pl/sklepy/gdansk/"},
{"business": "Żabka", "opening_hours": "06:00-23:00", "address": "ul. Narcyzowa 1", "city": "Gdynia", "url": "https://zabka.okazjum.pl/sklepy/gdansk/"},
{"business": "Żabka", "opening_hours": "06:00-23:00", "address": "ul. Wielkokacka 17", "city": "Gdynia", "url": "https://zabka.okazjum.pl/sklepy/gdansk/"},
{"business": "Żabka", "opening_hours": "06:00-23:00", "address": "ul. Słoneczna 2", "city": "Gdynia", "url": "https://zabka.okazjum.pl/sklepy/gdansk/"},
{"business": "Żabka", "opening_hours": "06:00-23:00", "address": "al. Marsz. Piłsudskiego 32a", "city": "Gdynia", "url": "https://zabka.okazjum.pl/sklepy/gdansk/"},
{"business": "Żabka", "opening_hours": "06:00-23:00", "address": "ul. Widna 7A", "city": "Gdynia", "url": "https://zabka.okazjum.pl/sklepy/gdansk/"},
{"business": "Żabka", "opening_hours": "06:00-23:00", "address": "ul. Nauczycielska 6", "city": "Gdynia", "url": "https://zabka.okazjum.pl/sklepy/gdansk/"},
{"business": "Żabka", "opening_hours": "06:00-23:00", "address": "ul. Gdańska 31", "city": "Kartuzy", "url": "https://zabka.okazjum.pl/sklepy/gdansk/"},
{"business": "Żabka", "opening_hours": "06:00-23:00", "address": "ul. Gdańska 62", "city": "Żukowo", "url": "https://zabka.okazjum.pl/sklepy/gdansk/"},
{"business": "Żabka", "opening_hours": "06:00-23:00", "address": "ul. Władysława IV 32-36", "city": "Gdynia", "url": "https://zabka.okazjum.pl/sklepy/gdansk/"},
{"business": "Żabka", "opening_hours": "06:00-23:00", "address": "ul. Władysława IV 53/1", "city": "Gdynia", "url": "https://zabka.okazjum.pl/sklepy/gdansk/"},
{"business": "Żabka", "opening_hours": "06:00-23:00", "address": "ul. Władysława IV 46/U4", "city": "Gdynia", "url": "https://zabka.okazjum.pl/sklepy/gdansk/"},
{"business": "Żabka", "opening_hours": "06:00-23:00", "address": "ul. Śląska 51b", "city": "Gdynia", "url": "https://zabka.okazjum.pl/sklepy/gdansk/"},
{"business": "Żabka", "opening_hours": "06:00-23:00", "address": "ul. Pomorska 21", "city": "Pszczółki", "url": "https://zabka.okazjum.pl/sklepy/gdansk/"},
{"business": "Żabka", "opening_hours": "06:00-23:00", "address": "ul. Bydgoska 5 lok. 5", "city": "Gdynia", "url": "https://zabka.okazjum.pl/sklepy/gdansk/"}
]